{"name":"Le Saint-Estève","address":"2250 route cézanne D17","postalCode":"13100","locality":"Le Tholonet"}
{"name":"Le Jardin des Remparts","address":"10 rue Hôtel-Dieu","postalCode":"21200","locality":"Beaune"}
{"name":"Maison Lameloise","address":"36 pl. d'Armes","postalCode":"71150","locality":"Chagny"}
{"name":"Le Chantecler","address":"37 Promenade des Anglais","postalCode":"06000","locality":"NICE"}
{"name":"La Licorne Royale","address":"27 Place Isaac Benserade","postalCode":"27480","locality":"Lyons-la-Forêt"}
{"name":"La Galinette","address":"23 r. Jean Payra","postalCode":"66000","locality":"Perpignan"}
{"name":"Restaurant de Lauzun","address":"3 bd de l'Esplanade","postalCode":"34150","locality":"Gignac"}
{"name":"La Gloire","address":"74 av. du Gén.-de-Gaulle","postalCode":"45200","locality":"Montargis"}
{"name":"Les Bacchanales","address":"247 avenue de Provence","postalCode":"06140","locality":"VENCE"}
{"name":"Fanny Rey & Jonathan Wahid","address":"12, boulevard Mirabeau","postalCode":"13210","locality":"SAINT REMY DE PROVENCE"}
{"name":"Frédéric Doucet","address":"2 avenue de la Libération","postalCode":"71120","locality":"Charolles"}
{"name":"Le Pré Catelan","address":"Route de Suresnes","postalCode":"75016","locality":"Paris"}
{"name":"Les Prés d'Eugénie - Michel Guérard","address":"pl. de l'Impératrice","postalCode":"40320","locality":"Eugénie-les-Bains"}
{"name":"Paloma","address":"47 Avenue du Moulin de la Croix","postalCode":"06250","locality":"Mougins"}
{"name":"Penati al Baretto","address":"9 rue Balzac","postalCode":"75008","locality":"Paris 08"}
{"name":"Aigue Marine","address":"5 r. M. -Berthelot","postalCode":"22220","locality":"Tréguier"}
{"name":"L'Orangerie du Château","address":"1 Avenue du Docteur Jean Laigret","postalCode":"41000","locality":"Blois"}
{"name":"JY'S","address":"17 r. de la Poissonnerie","postalCode":"68000","locality":"Colmar"}
{"name":"Les Pêcheurs","address":"10 boulevard du Maréchal-Juin","postalCode":"06600","locality":"Antibes"}
{"name":"La Tour des Vents","address":"Le Moulin de Malfourat","postalCode":"24240","locality":"Monbazillac"}
{"name":"Agapé","address":"51 rue Jouffroy-d'Abbans","postalCode":"75017","locality":"Paris 17"}
{"name":"Les Tablettes de Jean-Louis Nomicos","address":"16 avenue Bugeaud","postalCode":"75116","locality":"Paris 16"}
{"name":"Le Gindreau","address":"D5","postalCode":"46150","locality":"Saint-Médard"}
{"name":"Le Restaurant","address":"13 rue des Beaux-Arts","postalCode":"75006","locality":"Paris 06"}
{"name":"Épicure","address":"112 r. Fg St-Honoré","postalCode":"75008","locality":"Paris 08"}
{"name":"Christophe Bacquié","address":"Hotel du Castellet Route des Hauts du Camp","postalCode":"83330","locality":"Le Castellet"}
{"name":"Auguste","address":"54 r. Bourgogne","postalCode":"75007","locality":"Paris 07"}
{"name":"Auberge de l'Île Barbe","address":"1 Place Notre-Dame","postalCode":"69009","locality":"Lyon 09"}
{"name":"La Bergerie","address":"D999","postalCode":"63490","locality":"Sarpoil"}
{"name":"Le Grand Véfour","address":"17 rue de Beaujolais","postalCode":"75001","locality":"Paris"}
{"name":"Le 7ème Continent","address":"35 av. Gén. -de-Gaulle","postalCode":"68170","locality":"Rixheim"}
{"name":"Ar Men Du","address":"47 rue des îles","postalCode":"29920","locality":"Névez"}
{"name":"Paul Bocuse","address":"40 Rue de la Plage","postalCode":"69660","locality":"Collonges-au-Mont-d'Or"}
{"name":"Le 39V","address":"39 Avenue George V","postalCode":"75008","locality":"Paris 08"}
{"name":"Atmosphères","address":"618 Route des Tournelles","postalCode":"73370","locality":"Le Bourget-du-Lac"}
{"name":"Les Jardins de l'Espadon","address":"15 place Vendôme","postalCode":"75001","locality":"Paris"}
{"name":"Auberge de Clochemerle","address":"Rue Gabriel-Chevallier","postalCode":"69460","locality":"VAUX-EN-BEAUJOLAIS"}
{"name":"La Table de Franck Putelat","address":"80 chemin des Anglais","postalCode":"11000","locality":"Carcassonne"}
{"name":"Les Ducs de Lorraine","address":"5 av. Provence","postalCode":"88000","locality":"Épinal"}
{"name":"Le Jardin des Plumes","address":"1 Rue du Milieu","postalCode":"27620","locality":"Giverny"}
{"name":"La Table d'Uzès","address":"18 rue du Docteur Blanchard","postalCode":"30700","locality":"Uzès"}
{"name":"Le Pré du Moulin","address":"rte de Ste-Cécile-les-Vignes","postalCode":"84830","locality":"Sérignan-du-Comtat"}
{"name":"Patrick Jeffroy","address":"20 rue du Kelenn","postalCode":"29660","locality":"Carantec"}
{"name":"Les Berceaux","address":"13 rue des Berceaux","postalCode":"51200","locality":"Épernay"}
{"name":"Ivan Vautier","address":"3 avenue Henry-Chéron","postalCode":"14000","locality":"Caen"}
{"name":"William Frachot","address":"5 rue Michelet","postalCode":"21000","locality":"DIJON"}
{"name":"L'Arôme","address":"3 rue St-Philippe-du-Roule","postalCode":"75008","locality":"Paris 08"}
{"name":"AM par Alexandre Mazzia","address":"9 rue François Rocca","postalCode":"13008","locality":"Marseille"}
{"name":"Assa","address":"189 Quai Ulysse Besnard","postalCode":"41000","locality":"Blois"}
{"name":"Les Cèdres","address":"25 Rue Henri MACHON","postalCode":"26600","locality":"Granges-les-Beaumont"}
{"name":"Logis de la Cadène","address":"Place du Marche au Bois","postalCode":"33330","locality":"Saint Emilion"}
{"name":"Thierry Drapeau","address":"La Chabotterie","postalCode":"85260","locality":"Saint-Sulpice-le-Verdon"}
{"name":"Le Puits St-Jacques","address":"av. Victor-Capoul","postalCode":"32600","locality":"Pujaudran"}
{"name":"La Madeleine","address":"1 Rue Alsace-Lorraine","postalCode":"89100","locality":"Sens"}
{"name":"Apicius","address":"Marché Saint Pierre 1 étage","postalCode":"63000","locality":"Clermont-Ferrand"}
{"name":"La Liégeoise","address":"digue de mer","postalCode":"62930","locality":"Wimereux"}
{"name":"L'Écrin","address":"10 place de la Concorde","postalCode":"75008","locality":"Paris"}
{"name":"Le Baudelaire","address":"6-8 rue Duphot","postalCode":"75001","locality":"Paris 01"}
{"name":"Auberge de l'Ill","address":"2 rue de Collonges-au-Mont d'Or","postalCode":"68970","locality":"Illhaeusern"}
{"name":"Grand Hôtel du Lion d'Or","address":"69 r. Clemenceau","postalCode":"41200","locality":"Romorantin-Lanthenay"}
{"name":"Garance","address":"34 r. St-Dominique","postalCode":"75007","locality":"Paris"}
{"name":"René et Maxime Meilleur","address":"Saint Marcel","postalCode":"73440","locality":"Saint-Martin-de-Belleville"}
{"name":"La Lorraine","address":"80 rue Principale","postalCode":"57330","locality":"Zoufftgen"}
{"name":"Bruno","address":"2350 route des Arcs, Campagne Mariette","postalCode":"83510","locality":"Lorgues"}
{"name":"Dominique Bucaille","address":"715 av. des Savels","postalCode":"04100","locality":"Manosque"}
{"name":"La Marine","address":"11 r. de Paris","postalCode":"50270","locality":"Barneville-Carteret"}
{"name":"Jean Sulpice","address":"303 rte du Port","postalCode":"74290","locality":"Talloires"}
{"name":"Le Pavillon","address":"av. du Verger","postalCode":"62520","locality":"Le Touquet-Paris-Plage"}
{"name":"Auberge Le Prieuré","address":"4 Grand'Rue","postalCode":"47310","locality":"Moirax"}
{"name":"Quinsou","address":"33 r. de l'Abbé-Grégoire","postalCode":"75006","locality":"Paris"}
{"name":"Hexagone","address":"85 Avenue Kléber","postalCode":"75016","locality":"Paris"}
{"name":"Le Pot d'Étain","address":"4 av. de la République","postalCode":"90400","locality":"Danjoutin"}
{"name":"Michel Trama","address":"52 r. Royale","postalCode":"47270","locality":"Puymirol"}
{"name":"Mère Brazier","address":"12 rue Royale","postalCode":"69001","locality":"LYON"}
{"name":"La Table de la Ferme","address":"Vallée de l'Ortolo","postalCode":"20100","locality":"Sartène"}
{"name":"Azimut","address":"273 r. de la Madelon","postalCode":"73120","locality":"Courchevel-Saint-Bon"}
{"name":"L'Atelier de Jean-Luc Rabanel","address":"7 r. des Carmes","postalCode":"13200","locality":"Arles"}
{"name":"Le Clair de la Plume","address":"Place du Mail","postalCode":"26230","locality":"Grignan"}
{"name":"Numéro 3","address":"3 rue du Général de Gaulle","postalCode":"78490","locality":"Le Tremblay-sur-Mauldre"}
{"name":"Le Cinq","address":"31 av. George V","postalCode":"75008","locality":"Paris 08"}
{"name":"L'Amphitryon","address":"chemin de Gramont","postalCode":"31770","locality":"Colomiers"}
{"name":"Les Clefs d'Argent","address":"333 Avenue des Martyrs de la Résistance","postalCode":"40000","locality":"Mont-de-Marsan"}
{"name":"Auberge St-Laurent","address":"1 rue Fontaine","postalCode":"68510","locality":"Sierentz"}
{"name":"Le Grand Restaurant - Jean-François Piège","address":"7 r. d'Aguesseau","postalCode":"75008","locality":"Paris"}
{"name":"Les Voiles d'Or","address":"2 chemin de la Falaise","postalCode":"76200","locality":"Dieppe"}
{"name":"Palégrié","address":"Les Ritons","postalCode":"38250","locality":"Corrençon-en-Vercors"}
{"name":"Le Pousse-Pied","address":"84 bd des Vendéens","postalCode":"85360","locality":"La Tranche-sur-Mer"}
{"name":"Ima","address":"20 bd de la Tour-d'Auvergne","postalCode":"35000","locality":"Rennes"}
{"name":"Garopapilles","address":"62 r. Abbé-de-L'Epée","postalCode":"33000","locality":"Bordeaux"}
{"name":"L'Hysope","address":"25 r. de l'Aurore","postalCode":"17220","locality":"La Jarrie"}
{"name":"Étude","address":"14 r. Bouquet-de-Longchamp","postalCode":"75016","locality":"Paris"}
{"name":"Baumanière 1850","address":"rte de Bellecôte","postalCode":"73120","locality":"Courchevel 1850"}
{"name":"L'Océan","address":"43 bd Thiers","postalCode":"64500","locality":"Saint-Jean-de-Luz"}
{"name":"Allium","address":"88 bd de Créac'h-Gwen","postalCode":"29000","locality":"Quimper"}
{"name":"Le Clos St-Pierre","address":"pl. de la Mairie","postalCode":"06650","locality":"Le Rouret"}
{"name":"Château de Vauchoux","postalCode":"70170","locality":"Vauchoux"}
{"name":"Laurent","address":"41 av. Gabriel","postalCode":"75008","locality":"Paris"}
{"name":"Le Marcq","address":"944 av. de la République","postalCode":"59700","locality":"Marcq-en-Barœul"}
{"name":"Pages","address":"4 r. Auguste-Vacquerie","postalCode":"75016","locality":"Paris"}
{"name":"L'Émulsion","address":"57 rte de Lyon","postalCode":"38080","locality":"Saint-Alban-de-Roche"}
{"name":"Pèir","address":"r. de la Combe","postalCode":"84220","locality":"Gordes"}
{"name":"Rodolphe","address":"35 r. Percière","postalCode":"76000","locality":"Rouen"}
{"name":"Mickaël Féval","address":"11 Petite-Rue-St-Jean","postalCode":"13100","locality":"Aix-en-Provence"}
{"name":"La Table by La Villa","address":"chemin de Notre-Dame-de-la-Serra","postalCode":"20260","locality":"Calvi"}
{"name":"Auberge du Paradis","address":"Le Plâtre-Durand","postalCode":"71570","locality":"Saint-Amour-Bellevue"}
{"name":"Clovis","address":"21 Grand-Rue","postalCode":"06140","locality":"Tourrettes-sur-Loup"}
{"name":"Château de Codignat","address":"Bort l'Etang","postalCode":"63190","locality":"Bort-l'Étang"}
{"name":"La Vieille Tour","address":"75 r. de la Tour","postalCode":"22190","locality":"Plérin"}
{"name":"Le St-Martin","address":"1 r. du Gén.-Leclerc","postalCode":"25200","locality":"Montbéliard"}
{"name":"Racine","address":"6 pl. Godinot","postalCode":"51100","locality":"Reims"}
{"name":"L'Aromate","address":"2 r. Gustave Deloye","postalCode":"06000","locality":"Nice"}
{"name":"Les Genêts","address":"21 bis Rue de l'Océan","postalCode":"85470","locality":"Brem-sur-Mer"}
{"name":"Maison Crouzil et Hôtel L'Écrin","address":"20 les Quais","postalCode":"22130","locality":"Plancoët"}
{"name":"Auberge St-Walfrid","address":"58 r. de Grosbliederstroff","postalCode":"57200","locality":"Sarreguemines"}
{"name":"U Santa Marina","address":"Marina di Santa Giulia","postalCode":"20137","locality":"Porto-Vecchio"}
{"name":"Transparence \"La Table de Patrick Fréchin\"","address":"28 r. Stanislas","postalCode":"54000","locality":"Nancy"}
{"name":"Michel Sarran","address":"21 bd A.-Duportal","postalCode":"31000","locality":"Toulouse"}
{"name":"Le Chiberta","address":"3 Rue Arsène Houssaye","postalCode":"75008","locality":"Paris 08"}
{"name":"Mathieu Pacaud - Histoires","address":"85 Avenue Kléber","postalCode":"75016","locality":"Paris"}
{"name":"Septime","address":"80 r. de Charonne","postalCode":"75011","locality":"Paris"}
{"name":"Le Bistrot de Lagarde","address":"rte d'Apt","postalCode":"84400","locality":"Lagarde-d'Apt"}
{"name":"Meulien","address":"1 bis av. des Alpes","postalCode":"71700","locality":"Tournus"}
{"name":"Hostellerie Bérard","address":"Avenue Gabriel-Péri","postalCode":"83740","locality":"LA-CADIERE-D'AZUR"}
{"name":"Le Cloître","address":"Le Cloitre","postalCode":"04300","locality":"Mane"}
{"name":"Cayola","address":"76 promenade de Cayola","postalCode":"85180","locality":"Talmont-Saint-Hilaire"}
{"name":"L'Aquarelle","address":"71 A rte du Montil","postalCode":"17920","locality":"Breuillet"}
{"name":"Entre Vigne et Garrigue","address":"600 route de Saint Bruno","postalCode":"30131","locality":"Pujaut"}
{"name":"Pierre Orsi","address":"Place Kléber","postalCode":"69006","locality":"Lyon 06"}
{"name":"Les Trois Rochers","address":"16 rue du Phare","postalCode":"29120","locality":"Sainte-Marine"}
{"name":"Le Meurice Alain Ducasse","address":"228 Rue de Rivoli","postalCode":"75001","locality":"Paris"}
{"name":"L'Atelier de Joël Robuchon - St-Germain","address":"5 r. de Montalembert","postalCode":"75007","locality":"Paris"}
{"name":"Au Trou Gascon","address":"40 r. Taine","postalCode":"75012","locality":"Paris 12"}
{"name":"Le Relais Bernard Loiseau","address":"2, rue d'Argentine","postalCode":"21210","locality":"Saulieu"}
{"name":"Au Souper Fin","address":"1 rte de Clères","postalCode":"76690","locality":"Frichemesnil"}
{"name":"Restaurant du Château","address":"15 avenue des Reynats","postalCode":"24650","locality":"Chancelade"}
{"name":"La Table de Chaintré","address":"72 pl. du Luminaire","postalCode":"71570","locality":"Chaintré"}
{"name":"La Closerie","address":"bd des Platanes","postalCode":"84240","locality":"Ansouis"}
{"name":"L'Almandin","address":"Boulevard de l'Almandin","postalCode":"66750","locality":"Saint-Cyprien"}
{"name":"Au Déjeuner de Sousceyrac","address":"r. Pierre-Benoit","postalCode":"46190","locality":"Sousceyrac"}
{"name":"Le Gambetta","address":"12 r. Gambetta","postalCode":"49400","locality":"Saumur"}
{"name":"Sur Mesure par Thierry Marx","address":"251 r. St-Honoré","postalCode":"75001","locality":"Paris 01"}
{"name":"Le Puits du Trésor","address":"21 rte des Quatre-Châteaux","postalCode":"11600","locality":"Lastours"}
{"name":"Le Violon d'Ingres","address":"135 route St-Dominique","postalCode":"75007","locality":"Paris"}
{"name":"Aux Pesked","address":"59 Rue du Légué","postalCode":"22000","locality":"Saint-Brieuc"}
{"name":"Le Cercle","address":"44 bd Lahitolle","postalCode":"18000","locality":"Bourges"}
{"name":"Pertica","address":"15 pl. de la République","postalCode":"41100","locality":"Vendôme"}
{"name":"Le Moulin du Roc","address":"Avenue Eugène Le Roy","postalCode":"24530","locality":"Champagnac-de-Belair"}
{"name":"Le Chiquito","address":"3 r. de l'Oise, La Bonneville","postalCode":"95540","locality":"Méry-sur-Oise"}
{"name":"La Dame de Pic","address":"20 Rue du Louvre","postalCode":"75001","locality":"Paris 01"}
{"name":"Le Castellaras","address":"461 chemin Peymeyan","postalCode":"83440","locality":"Fayence"}
{"name":"Maison Rostang","address":"20 rue Rennequin","postalCode":"75017","locality":"Paris"}
{"name":"Le Pergolèse","address":"40, Rue Pergolèse","postalCode":"75016","locality":"Paris"}
{"name":"Xavier Mathieu","address":"Route de Murs","postalCode":"84220","locality":"Joucas"}
{"name":"Auberge du Bon Laboureur","address":"6 r. Dr Bretonneau","postalCode":"37150","locality":"Chenonceaux"}
{"name":"Pierre Reboul","address":"260 r. Guillaume-du-Vair","postalCode":"13546","locality":"Aix-en-Provence"}
{"name":"Henri et Joseph","address":"4 r. Léo-le-Bourgo","postalCode":"56100","locality":"Lorient"}
{"name":"Yam'Tcha","address":"121 r. St-Honoré","postalCode":"75001","locality":"Paris"}
{"name":"Restaurant H","address":"13 r. Jean-Beausire","postalCode":"75004","locality":"Paris"}
{"name":"Apicius","address":"20 r. d'Artois","postalCode":"75008","locality":"Paris"}
{"name":"Le Neuvième Art","address":"173 r. Cuvier","postalCode":"69006","locality":"Lyon"}
{"name":"Le Skiff Club","address":"1 av. Louis-Gaume","postalCode":"33260","locality":"La Teste-de-Buch"}
{"name":"Saturne","address":"17 r. N.-D.-des-Victoires","postalCode":"75002","locality":"Paris"}
{"name":"La Bonne Auberge","address":"15 r. Nationale","postalCode":"57350","locality":"Stiring-Wendel"}
{"name":"Montée","address":"9 r. Léopold-Robert","postalCode":"75014","locality":"Paris"}
{"name":"Le Chateaubriand","address":"129 av. Parmentier","postalCode":"75011","locality":"Paris"}
{"name":"Divellec","address":"18 r. Fabert","postalCode":"75007","locality":"Paris"}
{"name":"Pertinence","address":"29 r. de l'Exposition","postalCode":"75007","locality":"Paris"}
{"name":"Palm Beach","address":"route des Iles Sanguinaires","postalCode":"20000","locality":"Ajaccio"}
{"name":"Le Grand Cap","address":"chemin du Phare","postalCode":"11370","locality":"Leucate"}
{"name":"Comice","address":"31 av. de Versailles","postalCode":"75016","locality":"Paris"}
{"name":"L'Orée de la Forêt","address":"255 r. de la Forêt","postalCode":"60600","locality":"Étouy"}
{"name":"Jérôme Feck","address":"19 pl. Mgr-Tissier","postalCode":"51000","locality":"Châlons-en-Champagne"}
{"name":"Intuition","address":"1 r. Alsace-Lorraine","postalCode":"50000","locality":"Saint-Lô"}
{"name":"La Table d'Hôtes - Le Quatrième Mur","address":"2 pl. de la Comédie","postalCode":"33000","locality":"Bordeaux"}
{"name":"La Merise","address":"7 r. d'Eschbach","postalCode":"67580","locality":"Laubach"}
{"name":"Jean Chauvel","address":"33 av. Général-Leclerc","postalCode":"92100","locality":"Boulogne-Billancourt"}
{"name":"Au 14 Février","address":"Le Plâtre-Durand","postalCode":"71570","locality":"Saint-Amour-Bellevue"}
{"name":"Gaya Rive Gauche par Pierre Gagnaire","address":"44 r. du Bac","postalCode":"75007","locality":"Paris"}
{"name":"Les Pyrénées","address":"19 pl. Ch.-de-Gaulle","postalCode":"64220","locality":"Saint-Jean-Pied-de-Port"}
{"name":"Château de la Treyne","postalCode":"46200","locality":"Lacave"}
{"name":"Sushi B","address":"5 r. Rameau","postalCode":"75002","locality":"Paris"}
{"name":"Ken Kawasaki","address":"15 r. Caulaincourt","postalCode":"75018","locality":"Paris"}
{"name":"L'Auberge de Bagatelle","address":"489 av. Bollée","postalCode":"72000","locality":"Le Mans"}
{"name":"Akrame","address":"7 r. Tronchet","postalCode":"75008","locality":"Paris"}
{"name":"Le Parc Les Crayères","address":"64 Boulevard Henry Vasnier","postalCode":"51100","locality":"Reims"}
{"name":"Manoir de la Boulaie","address":"33 rue Chapelle St-Martin","postalCode":"44115","locality":"HAUTE-GOULAINE"}
{"name":"Aux Pesked","address":"59 Rue du Légué","postalCode":"22000","locality":"Saint-Brieuc"}
{"name":"Le Castellaras","address":"461 chemin Peymeyan","postalCode":"83440","locality":"Fayence"}
{"name":"Lucas Carton","address":"9 pl. de la Madeleine","postalCode":"75008","locality":"Paris 08"}
{"name":"Le Gabriel","address":"42 Avenue Gabriel","postalCode":"75008","locality":"Paris"}
{"name":"L'Amaryllis","address":"chemin de Martorey","postalCode":"71100","locality":"Saint-Rémy"}
{"name":"Maison Decoret","address":"15 rue du Parc","postalCode":"03200","locality":"Vichy"}
{"name":"Auberge de la Tour","address":"Place de la Fontaine","postalCode":"15220","locality":"MARCOLES"}
{"name":"Hostellerie Jérôme","address":"20 r. Comte de Cessole","postalCode":"06320","locality":"La Turbie"}
{"name":"Le Haut-Allier","address":"LE PONT D ALLEYRAS","postalCode":"43580","locality":"Alleyras"}
{"name":"Le Georges","address":"22 pl. des Épars","postalCode":"28000","locality":"CHARTRES"}
{"name":"L'Arcane","address":"39 Rue Lamarck","postalCode":"75018","locality":"Paris"}
{"name":"Au 14 Février","address":"2 r. du Portail","postalCode":"36100","locality":"Saint-Valentin"}
{"name":"La Côte Saint-Jacques","address":"14 faubourg de Paris","postalCode":"89300","locality":"Joigny"}
{"name":"Il Carpaccio","address":"37 avenue Hoche","postalCode":"75008","locality":"Paris 08"}
{"name":"Relais de la Poste","address":"24 avenue de Maremne","postalCode":"40140","locality":"Magescq"}
{"name":"Georges Blanc","address":"pl. du Marché","postalCode":"01540","locality":"Vonnas"}
{"name":"L'Arnsbourg","address":"Untermuhlthal","postalCode":"57230","locality":"Baerenthal"}
{"name":"Arpège","address":"84 Rue de Varenne","postalCode":"75007","locality":"Paris"}
{"name":"Le Millénaire","address":"4 rue Bertin","postalCode":"51100","locality":"Reims"}
{"name":"Radio","address":"43 av. P. et M.-Curie","postalCode":"63400","locality":"Chamalières"}
{"name":"Jean-Luc Tartarin","address":"Square Saint-Roch","postalCode":"76600","locality":"Le Havre"}
{"name":"Restaurant du Château","address":"15 avenue des Reynats","postalCode":"24650","locality":"Chancelade"}
{"name":"Pierre Orsi","address":"Place Kléber","postalCode":"69006","locality":"Lyon 06"}
{"name":"Le Cerf","address":"30 r. du Gén.-de-Gaulle","postalCode":"67520","locality":"Marlenheim"}
{"name":"La Bonne Étape","address":"chemin du lac","postalCode":"04160","locality":"Château-Arnoux"}
{"name":"Le Pavillon des Boulevards","address":"120 r. Croix-de-Seguey","postalCode":"33000","locality":"Bordeaux"}
{"name":"La Dame de Pic","address":"20 Rue du Louvre","postalCode":"75001","locality":"Paris 01"}
{"name":"Auberge du Vieux Puits","address":"5 Avenue Saint-Victor","postalCode":"11360","locality":"Fontjoncouse"}
{"name":"Alain Llorca","address":"350 Route de St-Paul","postalCode":"06480","locality":"La Colle-sur-Loup"}
{"name":"Louison","address":"2750 route de la cride","postalCode":"13610","locality":"Le Puy-Sainte-Réparade"}
{"name":"L'Aparté","address":"21 Rue de l’Europe","postalCode":"31850","locality":"MONTRABE"}
{"name":"Le Relais des Moines","address":"route de Ste-Roseline","postalCode":"83460","locality":"Les Arcs"}
{"name":"Le Pressoir","address":"7 r. de l'Hôpital","postalCode":"56890","locality":"Saint-Avé"}
{"name":"Le Bouche à Oreille","address":"11 r. de la Chapelle","postalCode":"91150","locality":"Boutervilliers"}
{"name":"Guy Savoy","address":"Monnaie de Paris11 Quai de Conti","postalCode":"75006","locality":"Paris"}
{"name":"Ze Kitchen Galerie","address":"4 r. des Grands-Augustins","postalCode":"75006","locality":"Paris"}
{"name":"La Maison de Bournissac","address":"montée d'Eyragues","postalCode":"13550","locality":"Les Paluds-des-Noves"}
{"name":"Auberge des Saints Pères","address":"212 av. de Nonneville","postalCode":"93600","locality":"Aulnay-sous-Bois"}
{"name":"L'Oustau de Baumanière","address":"Village des Baux-de-Provence","postalCode":"13520","locality":"Les Baux-de-Provence"}
{"name":"Les Fresques","address":"D18","postalCode":"24240","locality":"Monestier"}
{"name":"Bruno","address":"2350 route des Arcs, Campagne Mariette","postalCode":"83510","locality":"Lorgues"}
{"name":"Paloma","address":"47 Avenue du Moulin de la Croix","postalCode":"06250","locality":"Mougins"}
{"name":"Le Grand Bleu","address":"43 av. de la Gare","postalCode":"24200","locality":"Sarlat-la-Canéda"}
{"name":"La Ferme de l'Hospital","address":"rte du golf","postalCode":"74160","locality":"Bossey"}
{"name":"Hostellerie la Montagne","address":"10 rue Pisseloup","postalCode":"52330","locality":"COLOMBEY-LES-DEUX-EGLISES"}
{"name":"Gill","address":"9 quai de la Bourse","postalCode":"76000","locality":"Rouen"}
{"name":"Les Terrasses de Lyon","address":"25, montée Saint BArthelémy","postalCode":"69005","locality":"Lyon 05"}
{"name":"Maximilien","address":"19a rte Ostheim","postalCode":"68340","locality":"Zellenberg"}
{"name":"114, Faubourg","address":"114 r. Fg St-Honoré","postalCode":"75008","locality":"Paris 08"}
{"name":"La Table de la Ferme","address":"Vallée de l'Ortolo","postalCode":"20100","locality":"Sartène"}
{"name":"Quinsou","address":"33 r. de l'Abbé-Grégoire","postalCode":"75006","locality":"Paris"}
{"name":"Roscanvec","address":"17 r. des Halles","postalCode":"56000","locality":"Vannes"}
{"name":"Le Pré - Xavier Beaudiment","address":"3 Route de la Baraque","postalCode":"63830","locality":"Durtol"}
{"name":"Jean Sulpice","address":"303 rte du Port","postalCode":"74290","locality":"Talloires"}
{"name":"Le Gourmet de Sèze","address":"125 Rue de Sèze","postalCode":"69006","locality":"Lyon"}
{"name":"La Table de Nans","address":"corniche du Liouquet","postalCode":"13600","locality":"La Ciotat"}
{"name":"Auberge de la Mine","address":"le Gué-Plat","postalCode":"61450","locality":"La Ferrière-aux-Étangs"}
{"name":"U Santa Marina","address":"Marina di Santa Giulia","postalCode":"20137","locality":"Porto-Vecchio"}
{"name":"La Réserve Rimbaud","address":"820 Avenue de Saint-Maur","postalCode":"34000","locality":"Montpellier"}
{"name":"Yam'Tcha","address":"121 r. St-Honoré","postalCode":"75001","locality":"Paris"}
{"name":"Le Vieux Logis","address":"Le Bourg","postalCode":"24510","locality":"Trémolat"}
{"name":"Le Lido","address":"42 av. Napoléon-III","postalCode":"20110","locality":"Propriano"}
{"name":"Fontevraud Le Restaurant","address":"38 rue St-Jean-de-l'Habit","postalCode":"49590","locality":"FONTEVRAUD-L'ABBAYE"}
{"name":"Le Pavé d'Auge","address":"D49","postalCode":"14430","locality":"Beuvron-en-Auge"}
{"name":"Les Loges","address":"6 r. du Boeuf","postalCode":"69005","locality":"Lyon 05"}
{"name":"La Palmeraie","address":"81 Boulevard de Gigaro","postalCode":"83420","locality":"La Croix-Valmer"}
{"name":"Auberge du Cellier","address":"1 Rue de Sainte-Eugénie","postalCode":"66720","locality":"Montner"}
{"name":"Auberge Grand'Maison","address":"1 r. Léon-le-Cerf","postalCode":"22530","locality":"Mûr-de-Bretagne"}
{"name":"Les Bacchanales","address":"247 avenue de Provence","postalCode":"06140","locality":"VENCE"}
{"name":"La Maison dans le Parc","address":"3 r. Ste-Catherine","postalCode":"54000","locality":"Nancy"}
{"name":"La Table de Manville","address":"Domaine de Manville - D27","postalCode":"13520","locality":"Les Baux-de-Provence"}
{"name":"Le 1947","address":"Cheval Blanc Courchevel - Le Jardin Alpin","postalCode":"73120","locality":"Courchevel 1850"}
{"name":"Château Cordeillan-Bages","address":"route des chateaux","postalCode":"33250","locality":"Pauillac"}
{"name":"La Chèvre d'Or","address":"r. du Barri","postalCode":"06360","locality":"Èze"}
{"name":"La Fourchette du Printemps","address":"30 r. du Printemps","postalCode":"75017","locality":"Paris"}
{"name":"Le Brittany","address":"bd Ste-Barbe","postalCode":"29681","locality":"Roscoff"}
{"name":"Hélène Darroze","address":"4 rue d'Assas","postalCode":"75006","locality":"Paris 06"}
{"name":"Elsa","address":"Monte-Carlo Beach - Avenue Princesse Grace","postalCode":"06190","locality":"Roquebrune Cap-Martin"}
{"name":"Skab","address":"7 Rue de la République","postalCode":"30000","locality":"nimes"}
{"name":"Au 14 Février","address":"Le Plâtre-Durand","postalCode":"71570","locality":"Saint-Amour-Bellevue"}
{"name":"Les Pyrénées","address":"19 pl. Ch.-de-Gaulle","postalCode":"64220","locality":"Saint-Jean-Pied-de-Port"}
{"name":"Le Neuvième Art","address":"173 r. Cuvier","postalCode":"69006","locality":"Lyon"}
{"name":"Palm Beach","address":"route des Iles Sanguinaires","postalCode":"20000","locality":"Ajaccio"}
{"name":"Intuition","address":"1 r. Alsace-Lorraine","postalCode":"50000","locality":"Saint-Lô"}
{"name":"La Bonne Auberge","address":"15 r. Nationale","postalCode":"57350","locality":"Stiring-Wendel"}
{"name":"Mickaël Féval","address":"11 Petite-Rue-St-Jean","postalCode":"13100","locality":"Aix-en-Provence"}
{"name":"Henri et Joseph","address":"4 r. Léo-le-Bourgo","postalCode":"56100","locality":"Lorient"}
{"name":"Apicius","address":"20 r. d'Artois","postalCode":"75008","locality":"Paris"}
{"name":"L'Orée de la Forêt","address":"255 r. de la Forêt","postalCode":"60600","locality":"Étouy"}
{"name":"Auberge St-Walfrid","address":"58 r. de Grosbliederstroff","postalCode":"57200","locality":"Sarreguemines"}
{"name":"Le Pot d'Étain","address":"4 av. de la République","postalCode":"90400","locality":"Danjoutin"}
{"name":"Clovis","address":"21 Grand-Rue","postalCode":"06140","locality":"Tourrettes-sur-Loup"}
{"name":"Château de Codignat","address":"Bort l'Etang","postalCode":"63190","locality":"Bort-l'Étang"}
{"name":"L'Aromate","address":"2 r. Gustave Deloye","postalCode":"06000","locality":"Nice"}
{"name":"Le St-Martin","address":"1 r. du Gén.-Leclerc","postalCode":"25200","locality":"Montbéliard"}
{"name":"Saturne","address":"17 r. N.-D.-des-Victoires","postalCode":"75002","locality":"Paris"}
{"name":"Allium","address":"88 bd de Créac'h-Gwen","postalCode":"29000","locality":"Quimper"}
{"name":"Laurent","address":"41 av. Gabriel","postalCode":"75008","locality":"Paris"}
{"name":"Transparence \"La Table de Patrick Fréchin\"","address":"28 r. Stanislas","postalCode":"54000","locality":"Nancy"}
{"name":"Maison Crouzil et Hôtel L'Écrin","address":"20 les Quais","postalCode":"22130","locality":"Plancoët"}
{"name":"Étude","address":"14 r. Bouquet-de-Longchamp","postalCode":"75016","locality":"Paris"}
{"name":"Château de la Treyne","postalCode":"46200","locality":"Lacave"}
{"name":"Gavroche","address":"4 r. Klein","postalCode":"67000","locality":"Strasbourg"}
{"name":"L'Hysope","address":"25 r. de l'Aurore","postalCode":"17220","locality":"La Jarrie"}
{"name":"Le Château de Sable","address":"38 r. de l'Europe","postalCode":"29840","locality":"Porspoder"}
{"name":"Les Tables de Gaspard","address":"r. Principale","postalCode":"05600","locality":"St-Crépin"}
{"name":"St-James Paris","address":"43 av. Bugeaud","postalCode":"75116","locality":"Paris"}
{"name":"Gaya Rive Gauche par Pierre Gagnaire","address":"44 r. du Bac","postalCode":"75007","locality":"Paris"}
{"name":"Le Montgomerie","address":"356 rte de l'Altiport","postalCode":"73120","locality":"Courchevel 1850"}
{"name":"Le Champ des Lunes","address":"route de Roquefraîche","postalCode":"84360","locality":"Lauris"}
{"name":"La Lorraine","address":"80 rue Principale","postalCode":"57330","locality":"Zoufftgen"}
{"name":"Ed.Em","address":"4 imp. Chenevottes","postalCode":"21190","locality":"Chassagne-Montrachet"}
{"name":"Flocons de Sel","address":"1775 rte du Leutaz","postalCode":"74120","locality":"Megève"}
{"name":"Atmosphères","address":"618 Route des Tournelles","postalCode":"73370","locality":"Le Bourget-du-Lac"}
{"name":"Alliance","address":"5 Rue de Poissy","postalCode":"75005","locality":"Paris"}
{"name":"Hervé Busset","address":"D901","postalCode":"12320","locality":"Conques"}
{"name":"Cobéa","address":"11 r. Raymond Losserand","postalCode":"75014","locality":"Paris 14"}
{"name":"Alexandre","address":"2 rue Xavier Tronc","postalCode":"30128","locality":"Garons"}
{"name":"Au Vieux Couvent","address":"6 r. des Chanoines","postalCode":"67860","locality":"Rhinau"}
{"name":"Château d'Adoménil","postalCode":"54300","locality":"Lunéville"}
{"name":"La Renaissance","address":"20 av. 2e-Division-Blindée","postalCode":"61200","locality":"Argentan"}
{"name":"La Nouvelle Auberge","address":"9 route Nationale","postalCode":"68230","locality":"Wihr-au-Val"}
{"name":"Auberge Frankenbourg","address":"13 r. Gén. de Gaulle","postalCode":"67730","locality":"La Vancelle"}
{"name":"La Table des Cordeliers","address":"1 r. des Cordeliers","postalCode":"32100","locality":"Condom"}
{"name":"La Marine","address":"3 r. Marie-Lemonnier","postalCode":"85330","locality":"L'Herbaudière"}
{"name":"La Grande Maison de Bernard Magrez","address":"10 Rue Labottière","postalCode":"33000","locality":"Bordeaux"}
{"name":"Le Saint-Martin","address":"Avenue des Templiers","postalCode":"06140","locality":"Vence"}
{"name":"Auberge du Pont d'Acigné","address":"D392","postalCode":"35530","locality":"Noyal-sur-Vilaine"}
{"name":"Au Crocodile","address":"10 rue de L'Outre","postalCode":"67000","locality":"STRASBOURG"}
{"name":"Le Bistro des Saveurs","address":"35 Rue de Sélestat","postalCode":"67210","locality":"Obernai"}
{"name":"La Table de l'Alpaga","address":"66 Allée des Marmousets","postalCode":"74120","locality":"Megève"}
{"name":"Le Quincangrogne","address":"7 Rue de l'Abreuvoir","postalCode":"77400","locality":"Dampmart"}
{"name":"Auberge à la Bonne Idée","address":"3 rue des Meuniers","postalCode":"60350","locality":"SAINT-JEAN-AUX-BOIS"}
{"name":"Alcyone","address":"1 Place Daviel","postalCode":"13002","locality":"MARSEILLE"}
{"name":"Jin","address":"6 Rue de la Sourdière","postalCode":"75001","locality":"Paris"}
{"name":"La Table du Gourmet","address":"5 rue 1ère Armée","postalCode":"68340","locality":"Riquewihr"}
{"name":"Hostellerie de Plaisance","address":"5 place du Clocher","postalCode":"33330","locality":"Saint-Emilion"}
{"name":"J.-M. Pérochon","address":"63 avenue de la Grand'Roche","postalCode":"85470","locality":"Brétignolles-sur-Mer"}
{"name":"Les Ducs de Lorraine","address":"5 av. Provence","postalCode":"88000","locality":"Épinal"}
{"name":"Le Carré d'Alethius","address":"4 r. Paul-Bertois","postalCode":"07800","locality":"Charmes-sur-Rhône"}
{"name":"L'Orangerie","address":"31 Avenue George-V","postalCode":"75008","locality":"Paris"}
{"name":"Hostellerie de Levernois","address":"Rue du Golf","postalCode":"21200","locality":"Levernois"}
{"name":"Le Belrose","address":"Boulevard des Crêtes","postalCode":"83580","locality":"Gassin"}
{"name":"Sylvestre","address":"79 rue St-Dominique","postalCode":"75007","locality":"Paris"}
{"name":"L'Épuisette","address":"158 Vallon-des-Auffes","postalCode":"13007","locality":"Marseille"}
{"name":"Le Strasbourg","address":"24 r. du Col. -Teyssier","postalCode":"57230","locality":"Bitche"}
{"name":"Ken Kawasaki","address":"15 r. Caulaincourt","postalCode":"75018","locality":"Paris"}
{"name":"Auberge du Paradis","address":"Le Plâtre-Durand","postalCode":"71570","locality":"Saint-Amour-Bellevue"}
{"name":"Garance","address":"34 r. St-Dominique","postalCode":"75007","locality":"Paris"}
{"name":"Pèir","address":"r. de la Combe","postalCode":"84220","locality":"Gordes"}
{"name":"Divellec","address":"18 r. Fabert","postalCode":"75007","locality":"Paris"}
{"name":"Racine","address":"6 pl. Godinot","postalCode":"51100","locality":"Reims"}
{"name":"Garopapilles","address":"62 r. Abbé-de-L'Epée","postalCode":"33000","locality":"Bordeaux"}
{"name":"Les Genêts","address":"21 bis Rue de l'Océan","postalCode":"85470","locality":"Brem-sur-Mer"}
{"name":"Pertinence","address":"29 r. de l'Exposition","postalCode":"75007","locality":"Paris"}
{"name":"Akrame","address":"7 r. Tronchet","postalCode":"75008","locality":"Paris"}
{"name":"Le Pavillon","address":"av. du Verger","postalCode":"62520","locality":"Le Touquet-Paris-Plage"}
{"name":"Pierre Reboul","address":"260 r. Guillaume-du-Vair","postalCode":"13546","locality":"Aix-en-Provence"}
{"name":"Le Chateaubriand","address":"129 av. Parmentier","postalCode":"75011","locality":"Paris"}
{"name":"Le Grand Cap","address":"chemin du Phare","postalCode":"11370","locality":"Leucate"}
{"name":"Jérôme Feck","address":"19 pl. Mgr-Tissier","postalCode":"51000","locality":"Châlons-en-Champagne"}
{"name":"Château de Vauchoux","postalCode":"70170","locality":"Vauchoux"}
{"name":"La Table by La Villa","address":"chemin de Notre-Dame-de-la-Serra","postalCode":"20260","locality":"Calvi"}
{"name":"Palégrié","address":"Les Ritons","postalCode":"38250","locality":"Corrençon-en-Vercors"}
{"name":"Le Clos St-Pierre","address":"pl. de la Mairie","postalCode":"06650","locality":"Le Rouret"}
{"name":"Le Skiff Club","address":"1 av. Louis-Gaume","postalCode":"33260","locality":"La Teste-de-Buch"}
{"name":"Azimut","address":"273 r. de la Madelon","postalCode":"73120","locality":"Courchevel-Saint-Bon"}
{"name":"Rodolphe","address":"35 r. Percière","postalCode":"76000","locality":"Rouen"}
{"name":"L'Océan","address":"43 bd Thiers","postalCode":"64500","locality":"Saint-Jean-de-Luz"}
{"name":"Le Pousse-Pied","address":"84 bd des Vendéens","postalCode":"85360","locality":"La Tranche-sur-Mer"}
{"name":"Le Grand Restaurant - Jean-François Piège","address":"7 r. d'Aguesseau","postalCode":"75008","locality":"Paris"}
{"name":"Pages","address":"4 r. Auguste-Vacquerie","postalCode":"75016","locality":"Paris"}
{"name":"La Marine","address":"11 r. de Paris","postalCode":"50270","locality":"Barneville-Carteret"}
{"name":"Le Marcq","address":"944 av. de la République","postalCode":"59700","locality":"Marcq-en-Barœul"}
{"name":"Baumanière 1850","address":"rte de Bellecôte","postalCode":"73120","locality":"Courchevel 1850"}
{"name":"L'Émulsion","address":"57 rte de Lyon","postalCode":"38080","locality":"Saint-Alban-de-Roche"}
{"name":"La Vieille Tour","address":"75 r. de la Tour","postalCode":"22190","locality":"Plérin"}
{"name":"Le Hittau","address":"1 rue du Nouaou","postalCode":"40230","locality":"SAINT-VINCENT-DE-TYROSSE"}
{"name":"Domaine d'Auriac","address":"Route de Saint-Hilaire","postalCode":"11000","locality":"Carcassonne"}
{"name":"Mavrommatis","address":"42 rue Daubenton","postalCode":"75005","locality":"Paris 05"}
{"name":"Le Magasin aux Vivres","address":"5 Avenue Ney","postalCode":"57000","locality":"Metz"}
{"name":"Le Taillevent","address":"15 Rue Lamennais","postalCode":"75008","locality":"Paris"}
{"name":"Georges Blanc","address":"pl. du Marché","postalCode":"01540","locality":"Vonnas"}
{"name":"Mère Brazier","address":"12 rue Royale","postalCode":"69001","locality":"LYON"}
{"name":"Assiette Champenoise","address":"40 av. Paul Vaillant-Couturier","postalCode":"51430","locality":"Tinqueux"}
{"name":"L'Almandin","address":"Boulevard de l'Almandin","postalCode":"66750","locality":"Saint-Cyprien"}
{"name":"Carré des Feuillants","address":"14 rue de Castiglione","postalCode":"75001","locality":"Paris 01"}
{"name":"Le Fanal","address":"17 Avenue du Fontaulé","postalCode":"66650","locality":"Banyuls-sur-Mer"}
{"name":"La Balette","address":"rte de Port-Vendres","postalCode":"66190","locality":"Collioure"}
{"name":"La Liégeoise","address":"digue de mer","postalCode":"62930","locality":"Wimereux"}
{"name":"Dominique Bouchet","address":"11 Rue Treilhard","postalCode":"75008","locality":"Paris"}
{"name":"Mirazur","address":"30, Avenue Aristide Briand","postalCode":"06500","locality":"Menton"}
{"name":"Arpège","address":"84 Rue de Varenne","postalCode":"75007","locality":"Paris"}
{"name":"Christophe Bacquié","address":"Hotel du Castellet Route des Hauts du Camp","postalCode":"83330","locality":"Le Castellet"}
{"name":"Le Quinzième - Cyril Lignac","address":"14 rue Cauchy","postalCode":"75015","locality":"Paris"}
{"name":"Château de Pray","address":"Rue du Cèdre","postalCode":"37400","locality":"Amboise"}
{"name":"La Barbacane","address":"Place Auguste-Pierre-Pont","postalCode":"11000","locality":"Carcassonne"}
{"name":"Hostellerie Bérard","address":"Avenue Gabriel-Péri","postalCode":"83740","locality":"LA-CADIERE-D'AZUR"}
{"name":"Têtedoie","address":"4 rue du Professeur Pierre MARION","postalCode":"69005","locality":"Lyon 05"}
{"name":"1217","address":"le bourg","postalCode":"69620","locality":"Bagnols"}
{"name":"La Rotonde","address":"200 avenue du Casino","postalCode":"69890","locality":"LA-TOUR-DE-SALVAGNY"}
{"name":"Le Gambetta","address":"12 r. Gambetta","postalCode":"49400","locality":"Saumur"}
{"name":"Ivan Vautier","address":"3 avenue Henry-Chéron","postalCode":"14000","locality":"Caen"}
{"name":"Patrick Jeffroy","address":"20 rue du Kelenn","postalCode":"29660","locality":"Carantec"}
{"name":"La Rastègue","address":"48 bd du Levant","postalCode":"83230","locality":"Bormes-les-Mimosas"}
{"name":"Le Moulin du Roc","address":"Avenue Eugène Le Roy","postalCode":"24530","locality":"Champagnac-de-Belair"}
{"name":"Le Cerisier","address":"3 rue de la Gare","postalCode":"62840","locality":"LAVENTIE"}
{"name":"Mathieu Pacaud - Histoires","address":"85 Avenue Kléber","postalCode":"75016","locality":"Paris"}
{"name":"Numéro 3","address":"3 rue du Général de Gaulle","postalCode":"78490","locality":"Le Tremblay-sur-Mauldre"}
{"name":"G.a. au Manoir de Rétival","address":"Corniche de Rétival","postalCode":"76490","locality":"Caudebec-en-Caux"}
{"name":"William Frachot","address":"5 rue Michelet","postalCode":"21000","locality":"DIJON"}
{"name":"Paloma","address":"47 Avenue du Moulin de la Croix","postalCode":"06250","locality":"Mougins"}
{"name":"Le Chiberta","address":"3 Rue Arsène Houssaye","postalCode":"75008","locality":"Paris 08"}
{"name":"Hostellerie de l'Abbaye de la Celle","address":"10 Place Général de Gaulle","postalCode":"83170","locality":"La Celle"}
{"name":"Gill","address":"9 quai de la Bourse","postalCode":"76000","locality":"Rouen"}
{"name":"Le Grand Véfour","address":"17 rue de Beaujolais","postalCode":"75001","locality":"Paris"}
{"name":"La Table de la Ferme","address":"Vallée de l'Ortolo","postalCode":"20100","locality":"Sartène"}
{"name":"Pertinence","address":"29 r. de l'Exposition","postalCode":"75007","locality":"Paris"}
{"name":"Quinsou","address":"33 r. de l'Abbé-Grégoire","postalCode":"75006","locality":"Paris"}
{"name":"Jean Sulpice","address":"303 rte du Port","postalCode":"74290","locality":"Talloires"}
{"name":"Clovis","address":"21 Grand-Rue","postalCode":"06140","locality":"Tourrettes-sur-Loup"}
{"name":"Au 14 Février","address":"Le Plâtre-Durand","postalCode":"71570","locality":"Saint-Amour-Bellevue"}
{"name":"Saturne","address":"17 r. N.-D.-des-Victoires","postalCode":"75002","locality":"Paris"}
{"name":"L'Hysope","address":"25 r. de l'Aurore","postalCode":"17220","locality":"La Jarrie"}
{"name":"Château de la Treyne","postalCode":"46200","locality":"Lacave"}
{"name":"La Bonne Auberge","address":"15 r. Nationale","postalCode":"57350","locality":"Stiring-Wendel"}
{"name":"Le Montgomerie","address":"356 rte de l'Altiport","postalCode":"73120","locality":"Courchevel 1850"}
{"name":"Le Château de Sable","address":"38 r. de l'Europe","postalCode":"29840","locality":"Porspoder"}
{"name":"Maison Crouzil et Hôtel L'Écrin","address":"20 les Quais","postalCode":"22130","locality":"Plancoët"}
{"name":"Mickaël Féval","address":"11 Petite-Rue-St-Jean","postalCode":"13100","locality":"Aix-en-Provence"}
{"name":"L'Orée de la Forêt","address":"255 r. de la Forêt","postalCode":"60600","locality":"Étouy"}
{"name":"Transparence \"La Table de Patrick Fréchin\"","address":"28 r. Stanislas","postalCode":"54000","locality":"Nancy"}
{"name":"Yam'Tcha","address":"121 r. St-Honoré","postalCode":"75001","locality":"Paris"}
{"name":"Gavroche","address":"4 r. Klein","postalCode":"67000","locality":"Strasbourg"}
{"name":"Gaya Rive Gauche par Pierre Gagnaire","address":"44 r. du Bac","postalCode":"75007","locality":"Paris"}
{"name":"Auberge St-Walfrid","address":"58 r. de Grosbliederstroff","postalCode":"57200","locality":"Sarreguemines"}
{"name":"Le Neuvième Art","address":"173 r. Cuvier","postalCode":"69006","locality":"Lyon"}
{"name":"St-James Paris","address":"43 av. Bugeaud","postalCode":"75116","locality":"Paris"}
{"name":"Intuition","address":"1 r. Alsace-Lorraine","postalCode":"50000","locality":"Saint-Lô"}
{"name":"Laurent","address":"41 av. Gabriel","postalCode":"75008","locality":"Paris"}
{"name":"Allium","address":"88 bd de Créac'h-Gwen","postalCode":"29000","locality":"Quimper"}
{"name":"Henri et Joseph","address":"4 r. Léo-le-Bourgo","postalCode":"56100","locality":"Lorient"}
{"name":"Palm Beach","address":"route des Iles Sanguinaires","postalCode":"20000","locality":"Ajaccio"}
{"name":"Les Tables de Gaspard","address":"r. Principale","postalCode":"05600","locality":"St-Crépin"}
{"name":"Les Pyrénées","address":"19 pl. Ch.-de-Gaulle","postalCode":"64220","locality":"Saint-Jean-Pied-de-Port"}
{"name":"Apicius","address":"20 r. d'Artois","postalCode":"75008","locality":"Paris"}
{"name":"Le Pot d'Étain","address":"4 av. de la République","postalCode":"90400","locality":"Danjoutin"}
{"name":"Le Jasmin","address":"Lieu-dit Lalande","postalCode":"47140","locality":"Saint-Sylvestre-sur-Lot"}
{"name":"Le Cloître","address":"Le Cloitre","postalCode":"04300","locality":"Mane"}
{"name":"Le Violon d'Ingres","address":"135 route St-Dominique","postalCode":"75007","locality":"Paris"}
{"name":"Shang Palace","address":"10 Avenue d'Iéna","postalCode":"75016","locality":"Paris 16"}
{"name":"Au Trou Gascon","address":"40 r. Taine","postalCode":"75012","locality":"Paris 12"}
{"name":"Le Domaine du Colombier","address":"270 Chemin de Malombre","postalCode":"26780","locality":"Malataverne"}
{"name":"Flaveur","address":"25 Rue Gubernatis","postalCode":"06000","locality":"Nice"}
{"name":"Sur Mesure par Thierry Marx","address":"251 r. St-Honoré","postalCode":"75001","locality":"Paris 01"}
{"name":"Épicure","address":"112 r. Fg St-Honoré","postalCode":"75008","locality":"Paris 08"}
{"name":"Frédéric Simonin","address":"25 rue Bayen","postalCode":"75017","locality":"Paris"}
{"name":"La Passagère","address":"33 boulevard E. -Baudoin","postalCode":"06160","locality":"Juan-les-Pins"}
{"name":"L'Amphitryon","address":"127 r. du Col. -Müller","postalCode":"56100","locality":"Lorient"}
{"name":"Le Colombier","address":"r. Loucheur","postalCode":"76550","locality":"Offranville"}
{"name":"Les Rosiers","address":"32 av. Beau Soleil","postalCode":"64200","locality":"Biarritz"}
{"name":"La Bergerie","address":"D999","postalCode":"63490","locality":"Sarpoil"}
{"name":"Les Explorateurs","address":"place du Slalom","postalCode":"73440","locality":"VAL THORENS"}
{"name":"Maison Lameloise","address":"36 pl. d'Armes","postalCode":"71150","locality":"Chagny"}
{"name":"Maison Rostang","address":"20 rue Rennequin","postalCode":"75017","locality":"Paris"}
{"name":"La Roya","address":"plage de la Roya","postalCode":"20217","locality":"Saint-Florent"}
{"name":"Auberge du Bon Laboureur","address":"6 r. Dr Bretonneau","postalCode":"37150","locality":"Chenonceaux"}
{"name":"Frédéric Doucet","address":"2 avenue de la Libération","postalCode":"71120","locality":"Charolles"}
{"name":"Le Gindreau","address":"D5","postalCode":"46150","locality":"Saint-Médard"}
{"name":"Jean-Luc Tartarin","address":"Square Saint-Roch","postalCode":"76600","locality":"Le Havre"}
{"name":"Pierre Orsi","address":"Place Kléber","postalCode":"69006","locality":"Lyon 06"}
{"name":"Penati al Baretto","address":"9 rue Balzac","postalCode":"75008","locality":"Paris 08"}
{"name":"Les Prés d'Eugénie - Michel Guérard","address":"pl. de l'Impératrice","postalCode":"40320","locality":"Eugénie-les-Bains"}
{"name":"Origine","address":"26 rampe Cauchoise","postalCode":"76000","locality":"Rouen"}
{"name":"Les Terraillers","address":"11 Route Chemin-Neuf","postalCode":"06410","locality":"Biot"}
{"name":"Alexandre","address":"2 rue Xavier Tronc","postalCode":"30128","locality":"Garons"}
{"name":"Loiseau des Ducs","address":"3 Rue Vauban","postalCode":"21000","locality":"Dijon"}
{"name":"Les Jardins de l'Espadon","address":"15 place Vendôme","postalCode":"75001","locality":"Paris"}
{"name":"La Palme d'Or","address":"73 Boulevard de la Croisette","postalCode":"06400","locality":"Cannes"}
{"name":"Le Sénéchal","address":"Sauveterre de Rouergue","postalCode":"12800","locality":"Sauveterre-de-Rouergue"}
{"name":"Le Relais Bernard Loiseau","address":"2, rue d'Argentine","postalCode":"21210","locality":"Saulieu"}
{"name":"La Table de l'Espadon","address":"15 Place Vendôme","postalCode":"75001","locality":"Paris"}
{"name":"Le Refuge des Gourmets","address":"90 route des Framboises","postalCode":"74140","locality":"Machilly"}
{"name":"L'Atelier de Joël Robuchon - Étoile","address":"133 av. des Champs-Élysées","postalCode":"75008","locality":"Paris"}
{"name":"Chapelle Saint-Martin","address":"33, Saint Martin du Fault","postalCode":"87510","locality":"Nieul"}
{"name":"L'Aromate","address":"2 r. Gustave Deloye","postalCode":"06000","locality":"Nice"}
{"name":"L'Océan","address":"43 bd Thiers","postalCode":"64500","locality":"Saint-Jean-de-Luz"}
{"name":"Pierre Reboul","address":"260 r. Guillaume-du-Vair","postalCode":"13546","locality":"Aix-en-Provence"}
{"name":"Le Marcq","address":"944 av. de la République","postalCode":"59700","locality":"Marcq-en-Barœul"}
{"name":"Ken Kawasaki","address":"15 r. Caulaincourt","postalCode":"75018","locality":"Paris"}
{"name":"U Santa Marina","address":"Marina di Santa Giulia","postalCode":"20137","locality":"Porto-Vecchio"}
{"name":"Racine","address":"6 pl. Godinot","postalCode":"51100","locality":"Reims"}
{"name":"Le Grand Restaurant - Jean-François Piège","address":"7 r. d'Aguesseau","postalCode":"75008","locality":"Paris"}
{"name":"La Vieille Tour","address":"75 r. de la Tour","postalCode":"22190","locality":"Plérin"}
{"name":"Baumanière 1850","address":"rte de Bellecôte","postalCode":"73120","locality":"Courchevel 1850"}
{"name":"Jérôme Feck","address":"19 pl. Mgr-Tissier","postalCode":"51000","locality":"Châlons-en-Champagne"}
{"name":"Château de Vauchoux","postalCode":"70170","locality":"Vauchoux"}
{"name":"Rodolphe","address":"35 r. Percière","postalCode":"76000","locality":"Rouen"}
{"name":"Le Pousse-Pied","address":"84 bd des Vendéens","postalCode":"85360","locality":"La Tranche-sur-Mer"}
{"name":"Pèir","address":"r. de la Combe","postalCode":"84220","locality":"Gordes"}
{"name":"Auberge du Paradis","address":"Le Plâtre-Durand","postalCode":"71570","locality":"Saint-Amour-Bellevue"}
{"name":"Pages","address":"4 r. Auguste-Vacquerie","postalCode":"75016","locality":"Paris"}
{"name":"Garopapilles","address":"62 r. Abbé-de-L'Epée","postalCode":"33000","locality":"Bordeaux"}
{"name":"La Table by La Villa","address":"chemin de Notre-Dame-de-la-Serra","postalCode":"20260","locality":"Calvi"}
{"name":"Le St-Martin","address":"1 r. du Gén.-Leclerc","postalCode":"25200","locality":"Montbéliard"}
{"name":"L'Émulsion","address":"57 rte de Lyon","postalCode":"38080","locality":"Saint-Alban-de-Roche"}
{"name":"Azimut","address":"273 r. de la Madelon","postalCode":"73120","locality":"Courchevel-Saint-Bon"}
{"name":"Garance","address":"34 r. St-Dominique","postalCode":"75007","locality":"Paris"}
{"name":"La Marine","address":"11 r. de Paris","postalCode":"50270","locality":"Barneville-Carteret"}
{"name":"Les Genêts","address":"21 bis Rue de l'Océan","postalCode":"85470","locality":"Brem-sur-Mer"}
{"name":"Château de Codignat","address":"Bort l'Etang","postalCode":"63190","locality":"Bort-l'Étang"}
{"name":"Étude","address":"14 r. Bouquet-de-Longchamp","postalCode":"75016","locality":"Paris"}
{"name":"Palégrié","address":"Les Ritons","postalCode":"38250","locality":"Corrençon-en-Vercors"}
{"name":"Le Pavillon","address":"av. du Verger","postalCode":"62520","locality":"Le Touquet-Paris-Plage"}
{"name":"Le Clos St-Pierre","address":"pl. de la Mairie","postalCode":"06650","locality":"Le Rouret"}
{"name":"Le Cerf","address":"30 r. du Gén.-de-Gaulle","postalCode":"67520","locality":"Marlenheim"}
{"name":"Le Belvédère","address":"11 rte du Maquis-Jean-Pierre","postalCode":"12340","locality":"Bozouls"}
{"name":"Thierry Drapeau","address":"La Chabotterie","postalCode":"85260","locality":"Saint-Sulpice-le-Verdon"}
{"name":"Auberge de la Brie","address":"14 av. Alphonse Boulingre","postalCode":"77860","locality":"Couilly-Pont-aux-Dames"}
{"name":"La Table du Connétable","address":"4 Rue du Connétable","postalCode":"60500","locality":"Chantilly"}
{"name":"Mon Plaisir","address":"22 lieu-dit Journal","postalCode":"25190","locality":"Chamesol"}
{"name":"Ar Men Du","address":"47 rue des îles","postalCode":"29920","locality":"Névez"}
{"name":"Tour d'Argent","address":"15 quai de la Tournelle","postalCode":"75005","locality":"Paris"}
{"name":"Hexagone","address":"85 Avenue Kléber","postalCode":"75016","locality":"Paris"}
{"name":"La Chassagnette","address":"route du Sambuc","postalCode":"13200","locality":"Arles"}
{"name":"Côté Jardin","address":"14 rte de Bourges","postalCode":"45500","locality":"Gien"}
{"name":"Château du Mont Joly","address":"6 r. du Mont-Joly","postalCode":"39100","locality":"Sampans"}
{"name":"Table des Frères Ibarboure","address":"chemin Ttalienea","postalCode":"64210","locality":"Bidart"}
{"name":"Auberge de Clochemerle","address":"Rue Gabriel-Chevallier","postalCode":"69460","locality":"VAUX-EN-BEAUJOLAIS"}
{"name":"Le Prieuré","address":"r. de la Mairie","postalCode":"42820","locality":"Ambierle"}
{"name":"Le Moulin d'Alotz","address":"chemin Alotz-Errota","postalCode":"64200","locality":"Alotz"}
{"name":"Le Jules Verne","address":"2<E>ème</E> étage Tour Eiffel","postalCode":"75007","locality":"Paris"}
{"name":"Jérémy Galvan","address":"Rue du Boeuf","postalCode":"69005","locality":"Lyon 05"}
{"name":"Au Déjeuner de Sousceyrac","address":"r. Pierre-Benoit","postalCode":"46190","locality":"Sousceyrac"}
{"name":"L'Aubergade","address":"78 rte Nationale","postalCode":"80480","locality":"Dury"}
{"name":"La Table de La Butte","address":"10 rue de la Mer","postalCode":"29260","locality":"PLOUIDER"}
{"name":"Le Jardin des Plumes","address":"1 Rue du Milieu","postalCode":"27620","locality":"Giverny"}
{"name":"David Toutain","address":"29 r. Surcouf","postalCode":"75007","locality":"Paris"}
{"name":"Le Saint-James","address":"3 pl. Camille-Hostein","postalCode":"33270","locality":"BOULIAC"}
{"name":"La Galinette","address":"23 r. Jean Payra","postalCode":"66000","locality":"Perpignan"}
{"name":"Vieux Pont","postalCode":"12390","locality":"Belcastel"}
{"name":"L'Amphitryon","address":"chemin de Gramont","postalCode":"31770","locality":"Colomiers"}
{"name":"Le Pily","address":"39 Grande-Rue","postalCode":"50100","locality":"Cherbourg-en-Cotentin"}
{"name":"Assa","address":"189 Quai Ulysse Besnard","postalCode":"41000","locality":"Blois"}
{"name":"La Table des Cordeliers","address":"1 r. des Cordeliers","postalCode":"32100","locality":"Condom"}
{"name":"Au 14 Février","address":"36 r. du Bœuf","locality":"Lyon 05"}
{"name":"L'Atlantide 1874 - Maison Guého","address":"5 r. de l'Hermitage","postalCode":"44100","locality":"Nantes"}
{"name":"Étincelles - La Gentilhommière","postalCode":"24440","locality":"Sainte-Sabine"}
{"name":"L'Atelier de Jean-Luc Rabanel","address":"7 r. des Carmes","postalCode":"13200","locality":"Arles"}
{"name":"Château de Courban","address":"7 rue du Lavoir","postalCode":"21520","locality":"Courban"}
{"name":"Jérôme Nutile - Le Mas de Boudan","address":"351 Chemin du Mas de Boudan","postalCode":"30000","locality":"Nîmes"}
{"name":"Apicius","address":"Marché Saint Pierre 1 étage","postalCode":"63000","locality":"Clermont-Ferrand"}
{"name":"Atmosphères","address":"618 Route des Tournelles","postalCode":"73370","locality":"Le Bourget-du-Lac"}
{"name":"Le Chateaubriand","address":"129 av. Parmentier","postalCode":"75011","locality":"Paris"}
{"name":"Le Skiff Club","address":"1 av. Louis-Gaume","postalCode":"33260","locality":"La Teste-de-Buch"}
{"name":"Sushi B","address":"5 r. Rameau","postalCode":"75002","locality":"Paris"}
{"name":"Montée","address":"9 r. Léopold-Robert","postalCode":"75014","locality":"Paris"}
{"name":"Divellec","address":"18 r. Fabert","postalCode":"75007","locality":"Paris"}
{"name":"Jean Chauvel","address":"33 av. Général-Leclerc","postalCode":"92100","locality":"Boulogne-Billancourt"}
{"name":"Akrame","address":"7 r. Tronchet","postalCode":"75008","locality":"Paris"}
{"name":"La Table d'Hôtes - Le Quatrième Mur","address":"2 pl. de la Comédie","postalCode":"33000","locality":"Bordeaux"}
{"name":"La Merise","address":"7 r. d'Eschbach","postalCode":"67580","locality":"Laubach"}
{"name":"L'Auberge de Bagatelle","address":"489 av. Bollée","postalCode":"72000","locality":"Le Mans"}
{"name":"Comice","address":"31 av. de Versailles","postalCode":"75016","locality":"Paris"}
{"name":"Le Grand Cap","address":"chemin du Phare","postalCode":"11370","locality":"Leucate"}
{"name":"Restaurant H","address":"13 r. Jean-Beausire","postalCode":"75004","locality":"Paris"}
{"name":"Ima","address":"20 bd de la Tour-d'Auvergne","postalCode":"35000","locality":"Rennes"}
