{"name":"L'Auberge de Bagatelle","address":"489 av. Bollée","postalCode":"72000","locality":"Le Mans"}
{"name":"La Table d'Hôtes - Le Quatrième Mur","address":"2 pl. de la Comédie","postalCode":"33000","locality":"Bordeaux"}
{"name":"MaSa","address":"112 avenue Victor-Hugo","postalCode":"92100","locality":"Boulogne-Billancourt"}
{"name":"Maison Christian Étienne","address":"10 Rue de Mons","postalCode":"84000","locality":"Avignon"}
{"name":"Le Skiff Club","address":"1 av. Louis-Gaume","postalCode":"33260","locality":"La Teste-de-Buch"}
{"name":"Le St-Placide","address":"6 place du poncel","postalCode":"35400","locality":"Saint-Malo"}
{"name":"Ima","address":"20 bd de la Tour-d'Auvergne","postalCode":"35000","locality":"Rennes"}
{"name":"Le Vivier","address":"800 cours F. Peyre (rte de Carpentras)","postalCode":"84800","locality":"L'Isle-sur-la-Sorgue"}
{"name":"Auberge de la Mine","address":"le Gué-Plat","postalCode":"61450","locality":"La Ferrière-aux-Étangs"}
{"name":"Akrame","address":"7 r. Tronchet","postalCode":"75008","locality":"Paris"}
{"name":"L'Atelier Yssoirien","address":"39 Boulevard Triozon-Bayle","postalCode":"63500","locality":"Issoire"}
{"name":"Au 14 Février","address":"Le Plâtre-Durand","postalCode":"71570","locality":"Saint-Amour-Bellevue"}
{"name":"Sushi B","address":"5 r. Rameau","postalCode":"75002","locality":"Paris"}
{"name":"Le Pavé d'Auge","address":"D49","postalCode":"14430","locality":"Beuvron-en-Auge"}
{"name":"Restaurant H","address":"13 r. Jean-Beausire","postalCode":"75004","locality":"Paris"}
{"name":"Le Clos St-Pierre","address":"pl. de la Mairie","postalCode":"06650","locality":"Le Rouret"}
{"name":"Pertinence","address":"29 r. de l'Exposition","postalCode":"75007","locality":"Paris"}
{"name":"Xavier Mathieu","address":"Route de Murs","postalCode":"84220","locality":"Joucas"}
{"name":"Le Chateaubriand","address":"129 av. Parmentier","postalCode":"75011","locality":"Paris"}
{"name":"Serge Vieira","address":"Château du Couffour","postalCode":"15110","locality":"Chaudes-Aigues"}
{"name":"Rodolphe","address":"35 r. Percière","postalCode":"76000","locality":"Rouen"}
{"name":"Comice","address":"31 av. de Versailles","postalCode":"75016","locality":"Paris"}
{"name":"Au Souper Fin","address":"1 rte de Clères","postalCode":"76690","locality":"Frichemesnil"}
{"name":"Le Pousse-Pied","address":"84 bd des Vendéens","postalCode":"85360","locality":"La Tranche-sur-Mer"}
{"name":"Le Château de Sable","address":"38 r. de l'Europe","postalCode":"29840","locality":"Porspoder"}
{"name":"Le Grand Cap","address":"chemin du Phare","postalCode":"11370","locality":"Leucate"}
{"name":"Le Chiberta","address":"3 Rue Arsène Houssaye","postalCode":"75008","locality":"Paris 08"}
{"name":"Prairial","address":"11 Rue Chavanne","postalCode":"69001","locality":"Lyon"}
{"name":"Auberge du Paradis","address":"Le Plâtre-Durand","postalCode":"71570","locality":"Saint-Amour-Bellevue"}
{"name":"Le Cloître","address":"Le Cloitre","postalCode":"04300","locality":"Mane"}
{"name":"Pèir","address":"r. de la Combe","postalCode":"84220","locality":"Gordes"}
{"name":"Le Bouche à Oreille","address":"11 r. de la Chapelle","postalCode":"91150","locality":"Boutervilliers"}
{"name":"Les Terrasses d'Uriage","address":"pl. Déesse-Hygie","postalCode":"38410","locality":"Uriage-les-Bains"}
{"name":"L'Aromate","address":"2 r. Gustave Deloye","postalCode":"06000","locality":"Nice"}
{"name":"Assiette Champenoise","address":"40 av. Paul Vaillant-Couturier","postalCode":"51430","locality":"Tinqueux"}
{"name":"La Table by La Villa","address":"chemin de Notre-Dame-de-la-Serra","postalCode":"20260","locality":"Calvi"}
{"name":"Racine","address":"6 pl. Godinot","postalCode":"51100","locality":"Reims"}
{"name":"Le Pavillon","address":"av. du Verger","postalCode":"62520","locality":"Le Touquet-Paris-Plage"}
{"name":"Astrance","address":"4 r. Beethoven","postalCode":"75016","locality":"Paris"}
{"name":"Lasserre","address":"17 Avenue F. -D. -Roosevelt","postalCode":"75008","locality":"Paris 08"}
{"name":"Le Jasmin","address":"Lieu-dit Lalande","postalCode":"47140","locality":"Saint-Sylvestre-sur-Lot"}
{"name":"Ken Kawasaki","address":"15 r. Caulaincourt","postalCode":"75018","locality":"Paris"}
{"name":"Le Parc Les Crayères","address":"64 Boulevard Henry Vasnier","postalCode":"51100","locality":"Reims"}
{"name":"Domaine des Séquoias","address":"54 Vie-de-Boussieu","postalCode":"38300","locality":"Ruy"}
{"name":"Mathieu Pacaud - Histoires","address":"85 Avenue Kléber","postalCode":"75016","locality":"Paris"}
{"name":"Le Castellaras","address":"461 chemin Peymeyan","postalCode":"83440","locality":"Fayence"}
{"name":"Villa René Lalique","address":"18 Rue Bellevue","postalCode":"67290","locality":"Wingen-sur-Moder"}
{"name":"La Côte Saint-Jacques","address":"14 faubourg de Paris","postalCode":"89300","locality":"Joigny"}
{"name":"Yam'Tcha","address":"121 r. St-Honoré","postalCode":"75001","locality":"Paris"}
{"name":"Le Village","address":"3 Grande-Rue","postalCode":"78160","locality":"Marly-le-Roi"}
{"name":"L'Émulsion","address":"57 rte de Lyon","postalCode":"38080","locality":"Saint-Alban-de-Roche"}
{"name":"Le Belvédère","address":"11 rte du Maquis-Jean-Pierre","postalCode":"12340","locality":"Bozouls"}
{"name":"Ar Men Du","address":"47 rue des îles","postalCode":"29920","locality":"Névez"}
{"name":"L'Orée de la Forêt","address":"255 r. de la Forêt","postalCode":"60600","locality":"Étouy"}
{"name":"L'Arcane","address":"39 Rue Lamarck","postalCode":"75018","locality":"Paris"}
{"name":"Le Cap","address":"71 Boulevard du Général-de-Gaulle","postalCode":"06230","locality":"SAINT-JEAN-CAP-FERRAT"}
{"name":"Le Neuvième Art","address":"173 r. Cuvier","postalCode":"69006","locality":"Lyon"}
{"name":"Château de la Treyne","postalCode":"46200","locality":"Lacave"}
{"name":"La Chèvre d'Or","address":"r. du Barri","postalCode":"06360","locality":"Èze"}
{"name":"Dan B. - La Table de Ventabren","address":"r. F. -Mistral","postalCode":"13122","locality":"Ventabren"}
{"name":"Divellec","address":"18 r. Fabert","postalCode":"75007","locality":"Paris"}
{"name":"L'Atelier de Gaztelur","address":"Chemin de Gastelhur","postalCode":"64200","locality":"Arcangues"}
{"name":"Château de Mercuès","address":"Route du Château","postalCode":"46090","locality":"Mercuès"}
{"name":"Copenhague","address":"142 AVENUE DES CHAMPS ELYSEES","postalCode":"75008","locality":"PARIS"}
{"name":"Pierre Reboul","address":"260 r. Guillaume-du-Vair","postalCode":"13546","locality":"Aix-en-Provence"}
{"name":"Ed.Em","address":"4 imp. Chenevottes","postalCode":"21190","locality":"Chassagne-Montrachet"}
{"name":"La Grande Cascade","address":"Carrefour de Longchamp","postalCode":"75016","locality":"Paris"}
{"name":"La Grand'Vigne","address":"chemin de Smith-Haut-Lafitte","postalCode":"33650","locality":"Martillac"}
{"name":"Le Marcq","address":"944 av. de la République","postalCode":"59700","locality":"Marcq-en-Barœul"}
{"name":"Apicius","address":"20 r. d'Artois","postalCode":"75008","locality":"Paris"}
{"name":"Relais Louis XIII","address":"8 Rue des Grands Augustins","postalCode":"75006","locality":"Paris"}
{"name":"Pages","address":"4 r. Auguste-Vacquerie","postalCode":"75016","locality":"Paris"}
{"name":"Takao Takano","address":"33 Rue Malesherbes","postalCode":"69006","locality":"Lyon 06"}
{"name":"Mickaël Féval","address":"11 Petite-Rue-St-Jean","postalCode":"13100","locality":"Aix-en-Provence"}
{"name":"Vieux Pont","postalCode":"12390","locality":"Belcastel"}
{"name":"Aux Anges","address":"6 Place Georges Clemenceau","postalCode":"42300","locality":"Roanne"}
{"name":"L'Aparté","address":"21 Rue de l’Europe","postalCode":"31850","locality":"MONTRABE"}
{"name":"La Maison des Bois - Marc Veyrat","address":"Chemin Rural de Manigod au Col de la Croix Fry","postalCode":"74230","locality":"Manigod"}
{"name":"La Palme d'Or","address":"73 Boulevard de la Croisette","postalCode":"06400","locality":"Cannes"}
{"name":"Atmosphères","address":"618 Route des Tournelles","postalCode":"73370","locality":"Le Bourget-du-Lac"}
{"name":"Domaine de Clairefontaine","address":"chemin des Fontanettes","postalCode":"38121","locality":"Chonas-l'Amballan"}
{"name":"Hexagone","address":"85 Avenue Kléber","postalCode":"75016","locality":"Paris"}
{"name":"Le Saint-James","address":"3 pl. Camille-Hostein","postalCode":"33270","locality":"BOULIAC"}
{"name":"Transparence \"La Table de Patrick Fréchin\"","address":"28 r. Stanislas","postalCode":"54000","locality":"Nancy"}
{"name":"L'Orangerie","address":"31 Avenue George-V","postalCode":"75008","locality":"Paris"}
{"name":"Pic","address":"285 avenue Victor Hugo","postalCode":"26000","locality":"Valence"}
{"name":"Mon Plaisir","address":"22 lieu-dit Journal","postalCode":"25190","locality":"Chamesol"}
{"name":"La Passagère","address":"33 boulevard E. -Baudoin","postalCode":"06160","locality":"Juan-les-Pins"}
{"name":"Garopapilles","address":"62 r. Abbé-de-L'Epée","postalCode":"33000","locality":"Bordeaux"}
{"name":"Azimut","address":"273 r. de la Madelon","postalCode":"73120","locality":"Courchevel-Saint-Bon"}
{"name":"Buerehiesel","address":"dans le parc de l'Orangerie","postalCode":"67000","locality":"Strasbourg"}
{"name":"Manoir de la Boulaie","address":"33 rue Chapelle St-Martin","postalCode":"44115","locality":"HAUTE-GOULAINE"}
{"name":"Le Moulin d'Alotz","address":"chemin Alotz-Errota","postalCode":"64200","locality":"Alotz"}
{"name":"Le Millénaire","address":"4 rue Bertin","postalCode":"51100","locality":"Reims"}
{"name":"L'Aquarelle","address":"71 A rte du Montil","postalCode":"17920","locality":"Breuillet"}
{"name":"La Tour","address":"31 Nouvelle-Place","postalCode":"18300","locality":"Sancerre"}
{"name":"Le Moulin des Quatre Saisons","address":"r. Gallieni","postalCode":"72200","locality":"La Flèche"}
{"name":"L'Atlantide 1874 - Maison Guého","address":"5 r. de l'Hermitage","postalCode":"44100","locality":"Nantes"}
{"name":"La Palmeraie","address":"81 Boulevard de Gigaro","postalCode":"83420","locality":"La Croix-Valmer"}
{"name":"Au Vieux Couvent","address":"6 r. des Chanoines","postalCode":"67860","locality":"Rhinau"}
{"name":"Garance","address":"34 r. St-Dominique","postalCode":"75007","locality":"Paris"}
{"name":"Le Carmin","address":"4B Place Carnot","postalCode":"21200","locality":"Beaune"}
{"name":"Loiseau des Vignes","address":"31 Rue Jean Francois Maufoux","postalCode":"21200","locality":"Beaune"}
{"name":"L'Oasis","address":"rue Jean-Honoré Carle","postalCode":"06210","locality":"La Napoule"}
{"name":"Auberge de la Diligence","address":"4 r. de la Libération","postalCode":"49440","locality":"Loiré"}
{"name":"L'Amphitryon","address":"chemin de Gramont","postalCode":"31770","locality":"Colomiers"}
{"name":"La Dame de Pic","address":"20 Rue du Louvre","postalCode":"75001","locality":"Paris 01"}
{"name":"Le Bon Accueil","address":"32 Grande-Rue","postalCode":"25160","locality":"Malbuisson"}
{"name":"Le Patio","address":"10 bd de la Plage","postalCode":"33120","locality":"Arcachon"}
{"name":"Umami","address":"8 r. des Dentelles","postalCode":"67000","locality":"Strasbourg"}
{"name":"La Table de La Butte","address":"10 rue de la Mer","postalCode":"29260","locality":"PLOUIDER"}
{"name":"Maison Crouzil et Hôtel L'Écrin","address":"20 les Quais","postalCode":"22130","locality":"Plancoët"}
{"name":"Nakatani","address":"27 Rue Pierre Leroux","postalCode":"75007","locality":"PARIS"}
{"name":"Alain Ducasse au Plaza Athénée","address":"25 avenue Montaigne","postalCode":"75008","locality":"Paris"}
{"name":"Avel Vor","address":"25 r. de Locmalo","postalCode":"56290","locality":"Port-Louis"}
{"name":"Les Rosiers","address":"32 av. Beau Soleil","postalCode":"64200","locality":"Biarritz"}
{"name":"Montée","address":"9 r. Léopold-Robert","postalCode":"75014","locality":"Paris"}
{"name":"Les Pyrénées","address":"19 pl. Ch.-de-Gaulle","postalCode":"64220","locality":"Saint-Jean-Pied-de-Port"}
{"name":"Pierre Gagnaire","address":"6 Rue Balzac","postalCode":"75008","locality":"Paris 08"}
{"name":"Auberge du Dun","address":"3 rte de Dieppe","postalCode":"76740","locality":"Le Bourg-Dun"}
{"name":"Le Moulin du Roc","address":"Avenue Eugène Le Roy","postalCode":"24530","locality":"Champagnac-de-Belair"}
{"name":"Ô Saveurs","address":"8 place Ormeaux au village","postalCode":"31180","locality":"ROUFFIAC-TOLOSAN"}
{"name":"Auberge du Bon Laboureur","address":"6 r. Dr Bretonneau","postalCode":"37150","locality":"Chenonceaux"}
{"name":"Jérôme Nutile - Le Mas de Boudan","address":"351 Chemin du Mas de Boudan","postalCode":"30000","locality":"Nîmes"}
{"name":"Quai des Saveurs","address":"69 rue de la Gare","postalCode":"57300","locality":"Hagondange"}
{"name":"Restaurant des Rois","address":"5 Boulevard du Maréchal Leclerc","postalCode":"06310","locality":"Beaulieu-sur-Mer"}
{"name":"U Santa Marina","address":"Marina di Santa Giulia","postalCode":"20137","locality":"Porto-Vecchio"}
{"name":"Le Colombier","address":"r. Loucheur","postalCode":"76550","locality":"Offranville"}
{"name":"Le Montgomerie","address":"356 rte de l'Altiport","postalCode":"73120","locality":"Courchevel 1850"}
{"name":"Le Vivarais","address":"5 avenue Expilly","postalCode":"07600","locality":"VALS-LES-BAINS"}
{"name":"Le Pré du Moulin","address":"rte de Ste-Cécile-les-Vignes","postalCode":"84830","locality":"Sérignan-du-Comtat"}
{"name":"Mavrommatis","address":"42 rue Daubenton","postalCode":"75005","locality":"Paris 05"}
{"name":"La Fourchette des Ducs","address":"6 r. de la Gare","postalCode":"67210","locality":"Obernai"}
{"name":"Étude","address":"14 r. Bouquet-de-Longchamp","postalCode":"75016","locality":"Paris"}
{"name":"Roscanvec","address":"17 r. des Halles","postalCode":"56000","locality":"Vannes"}
{"name":"Le Beaulieu","address":"34 Bis Place République","postalCode":"72000","locality":"Le Mans"}
{"name":"Michel Chabran - La Grande Table","address":"29 Avenue du Quarante-Cinquième Parallèle","postalCode":"26600","locality":"Pont-de-l'Isère"}
{"name":"Palm Beach","address":"route des Iles Sanguinaires","postalCode":"20000","locality":"Ajaccio"}
{"name":"Gavroche","address":"4 r. Klein","postalCode":"67000","locality":"Strasbourg"}
{"name":"La Table de l'Espadon","address":"15 Place Vendôme","postalCode":"75001","locality":"Paris"}
{"name":"La Liégeoise","address":"digue de mer","postalCode":"62930","locality":"Wimereux"}
{"name":"L'Étang du Moulin","address":"5 chemin de l'Etang du Moulin","postalCode":"25210","locality":"Bonnétage"}
{"name":"Les Cèdres","address":"25 Rue Henri MACHON","postalCode":"26600","locality":"Granges-les-Beaumont"}
{"name":"Le Jules Verne","address":"2<E>ème</E> étage Tour Eiffel","postalCode":"75007","locality":"Paris"}
{"name":"Au Trou Gascon","address":"40 r. Taine","postalCode":"75012","locality":"Paris 12"}
{"name":"Château de Vauchoux","postalCode":"70170","locality":"Vauchoux"}
{"name":"L'Essentiel","address":"29 Rue Mirabeau","postalCode":"14800","locality":"DEAUVILLE"}
{"name":"Villa Archange","address":"Rue de l'Ouest","postalCode":"06110","locality":"Le Cannet"}
{"name":"Les Voiles d'Or","address":"2 chemin de la Falaise","postalCode":"76200","locality":"Dieppe"}
{"name":"Maison Lameloise","address":"36 pl. d'Armes","postalCode":"71150","locality":"Chagny"}
{"name":"Le Quinzième - Cyril Lignac","address":"14 rue Cauchy","postalCode":"75015","locality":"Paris"}
{"name":"Relais de la Poste","address":"24 avenue de Maremne","postalCode":"40140","locality":"Magescq"}
{"name":"Michel Trama","address":"52 r. Royale","postalCode":"47270","locality":"Puymirol"}
{"name":"Le Candille","address":"bd C. Rebuffel","postalCode":"06250","locality":"Mougins"}
{"name":"Le Gindreau","address":"D5","postalCode":"46150","locality":"Saint-Médard"}
{"name":"Les Trois Dômes","address":"20 quai Gailleton","postalCode":"69002","locality":"Lyon"}
{"name":"Les Hautes Roches","address":"86 quai de Loire","postalCode":"37210","locality":"Rochecorbon"}
{"name":"1131","address":"D 33","postalCode":"21360","locality":"La Bussière-sur-Ouche"}
{"name":"La Promenade","address":"11 rue du Savoureulx","postalCode":"37350","locality":"Le Petit-Pressigny"}
{"name":"Kei","address":"5 rue du Coq-Héron","postalCode":"75001","locality":"Paris 01"}
{"name":"Le Taillevent","address":"15 Rue Lamennais","postalCode":"75008","locality":"Paris"}
{"name":"Brikéténia","address":"142 r. de l'Église","postalCode":"64210","locality":"Guéthary"}
{"name":"L'Hysope","address":"25 r. de l'Aurore","postalCode":"17220","locality":"La Jarrie"}
{"name":"Lamartine","address":"Route du Tunnel du Chat","postalCode":"73370","locality":"Le Bourget du Lac"}
{"name":"Hostellerie Jérôme","address":"20 r. Comte de Cessole","postalCode":"06320","locality":"La Turbie"}
{"name":"Georges Blanc","address":"pl. du Marché","postalCode":"01540","locality":"Vonnas"}
{"name":"Cobéa","address":"11 r. Raymond Losserand","postalCode":"75014","locality":"Paris 14"}
{"name":"La Madeleine","address":"1 Rue Alsace-Lorraine","postalCode":"89100","locality":"Sens"}
{"name":"Le Lièvre Gourmand","address":"28 quai du Châtelet","postalCode":"45000","locality":"Orléans"}
{"name":"Auberge de la Brie","address":"14 av. Alphonse Boulingre","postalCode":"77860","locality":"Couilly-Pont-aux-Dames"}
{"name":"La Table des Blot - Auberge du Château","address":"1 Grande-Rue","postalCode":"78720","locality":"Dampierre-en-Yvelines"}
{"name":"Le Grand Véfour","address":"17 rue de Beaujolais","postalCode":"75001","locality":"Paris"}
{"name":"L'Axel","address":"43 r. de France","postalCode":"77300","locality":"Fontainebleau"}
{"name":"Aux Terrasses","address":"18 av. du 23-Janvier","postalCode":"71700","locality":"Tournus"}
{"name":"Les Fresques","address":"13 Avenue des Mateirons","postalCode":"74500","locality":"Évian-les-Bains"}
{"name":"Le Petit Hôtel du Grand Large","address":"11 quai St-Ivy","postalCode":"56510","locality":"Portivy"}
{"name":"La Ville Blanche","address":"La Ville Blanche","postalCode":"22300","locality":"Rospez"}
{"name":"Flaveur","address":"25 Rue Gubernatis","postalCode":"06000","locality":"Nice"}
{"name":"Auberge au Boeuf","address":"Rue de l'Eglise","postalCode":"67770","locality":"Sessenheim"}
{"name":"Auberge du Cheval Blanc","address":"4 Route de Wissembourg","postalCode":"67510","locality":"Lembach"}
{"name":"Le Restaurant","address":"13 rue des Beaux-Arts","postalCode":"75006","locality":"Paris 06"}
{"name":"Le Farçon","address":"immeuble la Kalinka","postalCode":"73125","locality":"La Tania"}
{"name":"Lucas Carton","address":"9 pl. de la Madeleine","postalCode":"75008","locality":"Paris 08"}
{"name":"Les Tablettes de Jean-Louis Nomicos","address":"16 avenue Bugeaud","postalCode":"75116","locality":"Paris 16"}
{"name":"Shang Palace","address":"10 Avenue d'Iéna","postalCode":"75016","locality":"Paris 16"}
{"name":"Fanny Rey & Jonathan Wahid","address":"12, boulevard Mirabeau","postalCode":"13210","locality":"SAINT REMY DE PROVENCE"}
{"name":"Aida","address":"1 r. Pierre Leroux","postalCode":"75007","locality":"Paris 07"}
{"name":"La Maison de Bournissac","address":"montée d'Eyragues","postalCode":"13550","locality":"Les Paluds-des-Noves"}
{"name":"Emporio Armani Ristorante","address":"149 Boulevard Saint-Germain","postalCode":"75006","locality":"Paris"}
{"name":"La Vieille Tour","address":"75 r. de la Tour","postalCode":"22190","locality":"Plérin"}
{"name":"La Table de la Bergerie","address":"La Bergerie","postalCode":"49380","locality":"Champ-sur-Layon"}
{"name":"L'Écrin","address":"10 place de la Concorde","postalCode":"75008","locality":"Paris"}
{"name":"Le Grand Bleu","address":"43 av. de la Gare","postalCode":"24200","locality":"Sarlat-la-Canéda"}
{"name":"Chapelle Saint-Martin","address":"33, Saint Martin du Fault","postalCode":"87510","locality":"Nieul"}
{"name":"Meurin","address":"Rue de Lillers","postalCode":"62350","locality":"Busnes"}
{"name":"Le Manoir du Lys","address":"D235","postalCode":"61140","locality":"Bagnoles-de-l'Orne"}
{"name":"Paul Bocuse","address":"40 Rue de la Plage","postalCode":"69660","locality":"Collonges-au-Mont-d'Or"}
{"name":"La Voile","address":"chemin de la Quessine","postalCode":"83350","locality":"Ramatuelle"}
{"name":"Domaine des Hauts de Loire","address":"79 rue Gilbert Navard","postalCode":"41150","locality":"Onzain"}
{"name":"L'Atelier de Joël Robuchon - Étoile","address":"133 av. des Champs-Élysées","postalCode":"75008","locality":"Paris"}
{"name":"Alcyone","address":"1 Place Daviel","postalCode":"13002","locality":"MARSEILLE"}
{"name":"Patrick Jeffroy","address":"20 rue du Kelenn","postalCode":"29660","locality":"Carantec"}
{"name":"La Table Breizh Café","address":"7 quai Thomas","postalCode":"35260","locality":"Cancale"}
{"name":"La Bonne Étape","address":"chemin du lac","postalCode":"04160","locality":"Château-Arnoux"}
{"name":"Le Mascaret","address":"1 r. de Bas","postalCode":"50560","locality":"Blainville-sur-Mer"}
{"name":"Bruno","address":"2350 route des Arcs, Campagne Mariette","postalCode":"83510","locality":"Lorgues"}
{"name":"Allium","address":"88 bd de Créac'h-Gwen","postalCode":"29000","locality":"Quimper"}
{"name":"Gordon Ramsay au Trianon","address":"1 bd de la Reine","postalCode":"78000","locality":"Versailles"}
{"name":"La Robe","address":"3 pl. Reveillère-Lepeaux","postalCode":"85600","locality":"Montaigu"}
{"name":"Entre Vigne et Garrigue","address":"600 route de Saint Bruno","postalCode":"30131","locality":"Pujaut"}
{"name":"Le France","address":"8 place Cupillard","postalCode":"25130","locality":"VILLERS-LE-LAC"}
{"name":"L'Arnsbourg","address":"Untermuhlthal","postalCode":"57230","locality":"Baerenthal"}
{"name":"Thierry Drapeau","address":"La Chabotterie","postalCode":"85260","locality":"Saint-Sulpice-le-Verdon"}
{"name":"La Maison d'à Côté","address":"17 rue de Chambord","postalCode":"41350","locality":"Montlivault"}
{"name":"L'Atelier de Joël Robuchon - St-Germain","address":"5 r. de Montalembert","postalCode":"75007","locality":"Paris"}
{"name":"L'Auberge Basque","address":"quartier Helbarron","postalCode":"64310","locality":"Saint-Pée-sur-Nivelle"}
{"name":"Le St-Martin","address":"1 r. du Gén.-Leclerc","postalCode":"25200","locality":"Montbéliard"}
{"name":"Miraflores","address":"60 r. Garibaldi","postalCode":"69006","locality":"Lyon"}
{"name":"Le Figuier de St-Esprit","address":"7, Promenade Amiral de Grasse","postalCode":"06600","locality":"Antibes"}
{"name":"Au Déjeuner de Sousceyrac","address":"r. Pierre-Benoit","postalCode":"46190","locality":"Sousceyrac"}
{"name":"L'Olivier","address":"25 Route des Carles","postalCode":"83990","locality":"Saint-Tropez"}
{"name":"Le Foch","address":"37 bd Foch","postalCode":"51100","locality":"Reims"}
{"name":"Le Hittau","address":"1 rue du Nouaou","postalCode":"40230","locality":"SAINT-VINCENT-DE-TYROSSE"}
{"name":"Guy Savoy","address":"Monnaie de Paris11 Quai de Conti","postalCode":"75006","locality":"Paris"}
{"name":"Le Musigny","address":"90 Avenue de Liege","postalCode":"59300","locality":"Valenciennes"}
{"name":"Domaine d'Auriac","address":"Route de Saint-Hilaire","postalCode":"11000","locality":"Carcassonne"}
{"name":"L'Amphitryon","address":"127 r. du Col. -Müller","postalCode":"56100","locality":"Lorient"}
{"name":"Il Cortile","address":"11 r. des Franciscains","postalCode":"68100","locality":"Mulhouse"}
{"name":"Clovis","address":"21 Grand-Rue","postalCode":"06140","locality":"Tourrettes-sur-Loup"}
{"name":"Au Crocodile","address":"10 rue de L'Outre","postalCode":"67000","locality":"STRASBOURG"}
{"name":"Elsa","address":"Monte-Carlo Beach - Avenue Princesse Grace","postalCode":"06190","locality":"Roquebrune Cap-Martin"}
{"name":"Têtedoie","address":"4 rue du Professeur Pierre MARION","postalCode":"69005","locality":"Lyon 05"}
{"name":"Les Prés d'Eugénie - Michel Guérard","address":"pl. de l'Impératrice","postalCode":"40320","locality":"Eugénie-les-Bains"}
{"name":"Alexandre","address":"2 rue Xavier Tronc","postalCode":"30128","locality":"Garons"}
{"name":"Hélène Darroze","address":"4 rue d'Assas","postalCode":"75006","locality":"Paris 06"}
{"name":"La Marine","address":"11 r. de Paris","postalCode":"50270","locality":"Barneville-Carteret"}
{"name":"Fontevraud Le Restaurant","address":"38 rue St-Jean-de-l'Habit","postalCode":"49590","locality":"FONTEVRAUD-L'ABBAYE"}
{"name":"Auberge de l'Abbaye","address":"47 place des anciens Combattants","postalCode":"01500","locality":"Ambronay"}
{"name":"La Petite Maison de Cucuron","address":"pl. de l'Étang","postalCode":"84160","locality":"Cucuron"}
{"name":"Auberge de l'Ill","address":"2 rue de Collonges-au-Mont d'Or","postalCode":"68970","locality":"Illhaeusern"}
{"name":"Flaveurs","address":"32 Grande-Rue","postalCode":"26000","locality":"Valence"}
{"name":"Le Mas du Langoustier","postalCode":"83400","locality":"Hyères"}
{"name":"Auberge à la Bonne Idée","address":"3 rue des Meuniers","postalCode":"60350","locality":"SAINT-JEAN-AUX-BOIS"}
{"name":"Neige d'Été","address":"12 Rue de l'Amiral Roussin","postalCode":"75015","locality":"Paris 15"}
{"name":"Les Ducs de Lorraine","address":"5 av. Provence","postalCode":"88000","locality":"Épinal"}
{"name":"Radio","address":"43 av. P. et M.-Curie","postalCode":"63400","locality":"Chamalières"}
{"name":"Les Terrasses de Lyon","address":"25, montée Saint BArthelémy","postalCode":"69005","locality":"Lyon 05"}
{"name":"1217","address":"le bourg","postalCode":"69620","locality":"Bagnols"}
{"name":"Château de Courban","address":"7 rue du Lavoir","postalCode":"21520","locality":"Courban"}
{"name":"Alliance","address":"5 Rue de Poissy","postalCode":"75005","locality":"Paris"}
{"name":"Château d'Adoménil","postalCode":"54300","locality":"Lunéville"}
{"name":"L'Essentiel","address":"8 r. de la Clarté","postalCode":"24000","locality":"Périgueux"}
{"name":"La Closerie","address":"bd des Platanes","postalCode":"84240","locality":"Ansouis"}
{"name":"L'Orangerie du Château","address":"1 Avenue du Docteur Jean Laigret","postalCode":"41000","locality":"Blois"}
{"name":"L'Océan","address":"43 bd Thiers","postalCode":"64500","locality":"Saint-Jean-de-Luz"}
{"name":"St-James Paris","address":"43 av. Bugeaud","postalCode":"75116","locality":"Paris"}
{"name":"Le Roc Alto","address":"Quartier La Ville","postalCode":"05350","locality":"SAINT-VERAN"}
{"name":"Au 14 Février","address":"2 r. du Portail","postalCode":"36100","locality":"Saint-Valentin"}
{"name":"Auberge du Cellier","address":"1 Rue de Sainte-Eugénie","postalCode":"66720","locality":"Montner"}
{"name":"Baumanière 1850","address":"rte de Bellecôte","postalCode":"73120","locality":"Courchevel 1850"}
{"name":"Jérôme Brochot","address":"Place Beaubernard","postalCode":"71300","locality":"Montceau-les-Mines"}
{"name":"Intuition","address":"1 r. Alsace-Lorraine","postalCode":"50000","locality":"Saint-Lô"}
{"name":"Le Bénaton","address":"25 Rue du Faubourg-Bretonnière","postalCode":"21200","locality":"BEAUNE"}
{"name":"Auberge Frankenbourg","address":"13 r. Gén. de Gaulle","postalCode":"67730","locality":"La Vancelle"}
{"name":"Cyril Attrazic","address":"10 rte du Languedoc","postalCode":"48130","locality":"Aumont-Aubrac"}
{"name":"La Vague d'Or","address":"Plage de Bouillabaisse","postalCode":"83990","locality":"Saint-Tropez"}
{"name":"Stéphane Derbord","address":"10 Place du Président Wilson","postalCode":"21000","locality":"Dijon"}
{"name":"Laurent","address":"41 av. Gabriel","postalCode":"75008","locality":"Paris"}
{"name":"Château de Pray","address":"Rue du Cèdre","postalCode":"37400","locality":"Amboise"}
{"name":"Le Coquillage","address":"Lieu-dit Le Buot","postalCode":"35350","locality":"Saint-Méloir-des-Ondes"}
{"name":"1912","address":"bd de la Cahotte","postalCode":"14360","locality":"Trouville-sur-Mer"}
{"name":"Pont de l'Ouysse","address":"D23","postalCode":"46200","locality":"Lacave"}
{"name":"Auberge Tiegezh","address":"7 Place de la Gare","postalCode":"56380","locality":"Guer"}
{"name":"Les Explorateurs","address":"place du Slalom","postalCode":"73440","locality":"VAL THORENS"}
{"name":"Penati al Baretto","address":"9 rue Balzac","postalCode":"75008","locality":"Paris 08"}
{"name":"Il Carpaccio","address":"37 avenue Hoche","postalCode":"75008","locality":"Paris 08"}
{"name":"Mariottat","address":"25 r. L.-Vivent","postalCode":"47000","locality":"Agen"}
{"name":"Les Pêcheurs","address":"10 boulevard du Maréchal-Juin","postalCode":"06600","locality":"Antibes"}
{"name":"Christophe Bacquié","address":"Hotel du Castellet Route des Hauts du Camp","postalCode":"83330","locality":"Le Castellet"}
{"name":"La Marande","address":"lieu-dit Mirande","postalCode":"71260","locality":"Montbellet"}
{"name":"Hostellerie Bérard","address":"Avenue Gabriel-Péri","postalCode":"83740","locality":"LA-CADIERE-D'AZUR"}
{"name":"Jean-Luc Tartarin","address":"Square Saint-Roch","postalCode":"76600","locality":"Le Havre"}
{"name":"Les Tables de Gaspard","address":"r. Principale","postalCode":"05600","locality":"St-Crépin"}
{"name":"Palégrié","address":"Les Ritons","postalCode":"38250","locality":"Corrençon-en-Vercors"}
{"name":"Auberge La Fenière","address":"D943","postalCode":"84160","locality":"Cadenet"}
{"name":"L'Éveil des Sens","address":"429 bd Paul-Lintier","postalCode":"53100","locality":"Mayenne"}
{"name":"Auberge de Clochemerle","address":"Rue Gabriel-Chevallier","postalCode":"69460","locality":"VAUX-EN-BEAUJOLAIS"}
{"name":"Mirazur","address":"30, Avenue Aristide Briand","postalCode":"06500","locality":"Menton"}
{"name":"Maison Prévôt","address":"353 av. de Verdun","postalCode":"84300","locality":"Cavaillon"}
{"name":"Les Terraillers","address":"11 Route Chemin-Neuf","postalCode":"06410","locality":"Biot"}
{"name":"Régis et Jacques Marcon","address":"Larsiallas","postalCode":"43290","locality":"SAINT-BONNET-LE-FROID"}
{"name":"Les Trois Rochers","address":"16 rue du Phare","postalCode":"29120","locality":"Sainte-Marine"}
{"name":"Sur Mesure par Thierry Marx","address":"251 r. St-Honoré","postalCode":"75001","locality":"Paris 01"}
{"name":"Le Domaine de la Corniche","address":"5 rte de la Corniche","postalCode":"78270","locality":"Rolleboise"}
{"name":"Albert 1er","address":"38 rte du Bouchet","postalCode":"74400","locality":"Chamonix-Mont-Blanc"}
{"name":"La Lorraine","address":"80 rue Principale","postalCode":"57330","locality":"Zoufftgen"}
{"name":"La Bastide St-Antoine","address":"48 av. Henri-Dunant","postalCode":"06130","locality":"Grasse"}
{"name":"Le Violon d'Ingres","address":"135 route St-Dominique","postalCode":"75007","locality":"Paris"}
{"name":"La Scène","address":"33 Avenue George V","postalCode":"75008","locality":"Paris"}
{"name":"Le Fanal","address":"17 Avenue du Fontaulé","postalCode":"66650","locality":"Banyuls-sur-Mer"}
{"name":"Girardin","address":"19 Rue des Têtes","postalCode":"68000","locality":"Colmar"}
{"name":"La Barbacane","address":"Place Auguste-Pierre-Pont","postalCode":"11000","locality":"Carcassonne"}
{"name":"Le Meurice Alain Ducasse","address":"228 Rue de Rivoli","postalCode":"75001","locality":"Paris"}
{"name":"La Galinette","address":"23 r. Jean Payra","postalCode":"66000","locality":"Perpignan"}
{"name":"Le Grand Restaurant - Jean-François Piège","address":"7 r. d'Aguesseau","postalCode":"75008","locality":"Paris"}
{"name":"Dominique Bouchet","address":"11 Rue Treilhard","postalCode":"75008","locality":"Paris"}
{"name":"Le Refuge des Gourmets","address":"90 route des Framboises","postalCode":"74140","locality":"Machilly"}
{"name":"JY'S","address":"17 r. de la Poissonnerie","postalCode":"68000","locality":"Colmar"}
{"name":"Loiseau rive Gauche","address":"5 rue Bourgogne","postalCode":"75007","locality":"Paris 07"}
{"name":"La Table d'Uzès","address":"18 rue du Docteur Blanchard","postalCode":"30700","locality":"Uzès"}
{"name":"Auberge du Vert Mont","address":"1318 r. du Mont-Noir","postalCode":"59299","locality":"Boeschepe"}
{"name":"La Scène Thélème","address":"18 Rue Troyon","postalCode":"75017","locality":"Paris"}
{"name":"Logis de la Cadène","address":"Place du Marche au Bois","postalCode":"33330","locality":"Saint Emilion"}
{"name":"L'Almandin","address":"Boulevard de l'Almandin","postalCode":"66750","locality":"Saint-Cyprien"}
{"name":"Le Saison","address":"1 imp. du Vieux-Bourg","postalCode":"35760","locality":"Saint-Grégoire"}
{"name":"Jean Chauvel","address":"33 av. Général-Leclerc","postalCode":"92100","locality":"Boulogne-Billancourt"}
{"name":"La Ribaudière","address":"2 pl. du Port","postalCode":"16200","locality":"Bourg-Charente"}
{"name":"Gill","address":"9 quai de la Bourse","postalCode":"76000","locality":"Rouen"}
{"name":"Le Sénéchal","address":"Sauveterre de Rouergue","postalCode":"12800","locality":"Sauveterre-de-Rouergue"}
{"name":"Le Cercle","address":"44 bd Lahitolle","postalCode":"18000","locality":"Bourges"}
{"name":"La Grenouillère","address":"19 r. de la Grenouillère","postalCode":"62170","locality":"La Madelaine-sous-Montreuil"}
{"name":"La Tour des Vents","address":"Le Moulin de Malfourat","postalCode":"24240","locality":"Monbazillac"}
{"name":"G.a. au Manoir de Rétival","address":"Corniche de Rétival","postalCode":"76490","locality":"Caudebec-en-Caux"}
{"name":"SaQuaNa","address":"22 pl. Hamelin","postalCode":"14600","locality":"Honfleur"}
{"name":"Maison Decoret","address":"15 rue du Parc","postalCode":"03200","locality":"Vichy"}
{"name":"Ithurria","address":"pl. du Fronton","postalCode":"64250","locality":"Ainhoa"}
{"name":"Les Chênes Verts","address":"rte de Villecroze","postalCode":"83690","locality":"Tourtour"}
{"name":"Étincelles - La Gentilhommière","postalCode":"24440","locality":"Sainte-Sabine"}
{"name":"Le Moulin de l'Abbaye","address":"1 avenue Pierre de Bourdeilles","postalCode":"24310","locality":"BRANTOME"}
{"name":"Le Camélia","address":"7 quai Georges Clemenceau","postalCode":"78380","locality":"Bougival"}
{"name":"L'Impertinent","address":"5, rue d'Alsace","postalCode":"64200","locality":"Biarritz"}
{"name":"Le Chiquito","address":"3 r. de l'Oise, La Bonneville","postalCode":"95540","locality":"Méry-sur-Oise"}
{"name":"Aigue Marine","address":"5 r. M. -Berthelot","postalCode":"22220","locality":"Tréguier"}
{"name":"Table - Bruno Verjus","address":"3 r. de Prague","postalCode":"75012","locality":"Paris"}
{"name":"Auberge de la Tour","address":"Place de la Fontaine","postalCode":"15220","locality":"MARCOLES"}
{"name":"La Grignotière","address":"6 Rue Jean Jaures","postalCode":"59590","locality":"Raismes"}
{"name":"L'Atelier du Peintre","address":"1 Rue Schongauer","postalCode":"68000","locality":"Colmar"}
{"name":"Julien Binz","address":"7 Rue des Cigognes","postalCode":"68770","locality":"Ammerschwihr"}
{"name":"William Frachot","address":"5 rue Michelet","postalCode":"21000","locality":"DIJON"}
{"name":"La Bergerie","address":"D999","postalCode":"63490","locality":"Sarpoil"}
{"name":"Jean Sulpice","address":"303 rte du Port","postalCode":"74290","locality":"Talloires"}
{"name":"La Grande Maison de Bernard Magrez","address":"10 Rue Labottière","postalCode":"33000","locality":"Bordeaux"}
{"name":"Le Pily","address":"39 Grande-Rue","postalCode":"50100","locality":"Cherbourg-en-Cotentin"}
{"name":"La Renaissance","address":"20 av. 2e-Division-Blindée","postalCode":"61200","locality":"Argentan"}
{"name":"Le P'tit Polyte","address":"2 Rue de la Chapelle","postalCode":"38860","locality":"Les Deux Alpes"}
{"name":"La Villa Madie","address":"av. du Revestel","postalCode":"13260","locality":"Cassis"}
{"name":"Le George","address":"31 Avenue George V","postalCode":"75008","locality":"Paris"}
{"name":"Raphaël Vionnet","address":"43 Avenue du Général Leclerc","postalCode":"74200","locality":"Thonon-les-Bains"}
{"name":"Paloma","address":"47 Avenue du Moulin de la Croix","postalCode":"06250","locality":"Mougins"}
{"name":"Le M","address":"22 r. du Cdt-Drogou","postalCode":"29200","locality":"Brest"}
{"name":"Le 7ème Continent","address":"35 av. Gén. -de-Gaulle","postalCode":"68170","locality":"Rixheim"}
{"name":"L'Aubergade","address":"78 rte Nationale","postalCode":"80480","locality":"Dury"}
{"name":"Les Clefs d'Argent","address":"333 Avenue des Martyrs de la Résistance","postalCode":"40000","locality":"Mont-de-Marsan"}
{"name":"À Contre Sens","address":"8-10 r. des Croisiers","postalCode":"14000","locality":"Caen"}
{"name":"Château de Codignat","address":"Bort l'Etang","postalCode":"63190","locality":"Bort-l'Étang"}
{"name":"Ivan Vautier","address":"3 avenue Henry-Chéron","postalCode":"14000","locality":"Caen"}
{"name":"Guy Lassausaie","address":"r. de Belle-Sise","postalCode":"69380","locality":"Chasselay"}
{"name":"Le Pot d'Étain","address":"4 av. de la République","postalCode":"90400","locality":"Danjoutin"}
{"name":"Auberge St-Walfrid","address":"58 r. de Grosbliederstroff","postalCode":"57200","locality":"Sarreguemines"}
{"name":"La Promenade","address":"2 promenade Jean-Jaurès","postalCode":"31590","locality":"Verfeil"}
{"name":"Table des Frères Ibarboure","address":"chemin Ttalienea","postalCode":"64210","locality":"Bidart"}
{"name":"Benoit","address":"20 Rue St-Martin","postalCode":"75004","locality":"Paris 04"}
{"name":"Initial","address":"24 Rue Saint-Manvieu","postalCode":"14000","locality":"Caen"}
{"name":"Louison","address":"2750 route de la cride","postalCode":"13610","locality":"Le Puy-Sainte-Réparade"}
{"name":"La Licorne Royale","address":"27 Place Isaac Benserade","postalCode":"27480","locality":"Lyons-la-Forêt"}
{"name":"Le Raisin","address":"2 pl. M. -Poisat","postalCode":"01190","locality":"Pont-de-Vaux"}
{"name":"Auberge du Pont d'Acigné","address":"D392","postalCode":"35530","locality":"Noyal-sur-Vilaine"}
{"name":"La Réserve Rimbaud","address":"820 Avenue de Saint-Maur","postalCode":"34000","locality":"Montpellier"}
{"name":"Les Jardins de l'Espadon","address":"15 place Vendôme","postalCode":"75001","locality":"Paris"}
{"name":"Le Pressoir d'Argent - Gordon Ramsay","address":"2,5 Place de la Comédie","postalCode":"33000","locality":"Bordeaux"}
{"name":"Le Magasin aux Vivres","address":"5 Avenue Ney","postalCode":"57000","locality":"Metz"}
{"name":"JAN","address":"12 Rue Lascaris","postalCode":"06000","locality":"Nice"}
{"name":"La Mare aux Oiseaux","address":"223 RUE DU CHEF DE L'ILE Fedrun","postalCode":"44720","locality":"Saint-Joachim"}
{"name":"La Maison dans le Parc","address":"3 r. Ste-Catherine","postalCode":"54000","locality":"Nancy"}
{"name":"Chez Michèle","address":"57 rue Principale","postalCode":"57810","locality":"Languimberg"}
{"name":"L'Auberge des Glazicks","address":"7 rue de la Plage","postalCode":"29550","locality":"PLOMODIERN"}
{"name":"La Table d'Olivier","address":"3 r. St-Ambroise","postalCode":"19100","locality":"Brive-la-Gaillarde"}
{"name":"Le Relais Bernard Loiseau","address":"2, rue d'Argentine","postalCode":"21210","locality":"Saulieu"}
{"name":"René et Maxime Meilleur","address":"Saint Marcel","postalCode":"73440","locality":"Saint-Martin-de-Belleville"}
{"name":"L'Amaryllis","address":"chemin de Martorey","postalCode":"71100","locality":"Saint-Rémy"}
{"name":"Les Loges","address":"6 r. du Boeuf","postalCode":"69005","locality":"Lyon 05"}
{"name":"L'Archeste","address":"79 rue de la Tour","postalCode":"75116","locality":"Paris"}
{"name":"La Rotonde","address":"200 avenue du Casino","postalCode":"69890","locality":"LA-TOUR-DE-SALVAGNY"}
{"name":"Le Belrose","address":"Boulevard des Crêtes","postalCode":"83580","locality":"Gassin"}
{"name":"Carré des Feuillants","address":"14 rue de Castiglione","postalCode":"75001","locality":"Paris 01"}
{"name":"Château Cordeillan-Bages","address":"route des chateaux","postalCode":"33250","locality":"Pauillac"}
{"name":"Flocons de Sel","address":"1775 rte du Leutaz","postalCode":"74120","locality":"Megève"}
{"name":"La Table du Gourmet","address":"5 rue 1ère Armée","postalCode":"68340","locality":"Riquewihr"}
{"name":"Assa","address":"189 Quai Ulysse Besnard","postalCode":"41000","locality":"Blois"}
{"name":"Château Blanchard","address":"36 rte de St-Galmier","postalCode":"42140","locality":"Chazelles-sur-Lyon"}
{"name":"La Merise","address":"7 r. d'Eschbach","postalCode":"67580","locality":"Laubach"}
{"name":"Le Strasbourg","address":"24 r. du Col. -Teyssier","postalCode":"57230","locality":"Bitche"}
{"name":"La Table des Cordeliers","address":"1 r. des Cordeliers","postalCode":"32100","locality":"Condom"}
{"name":"Hervé Busset","address":"D901","postalCode":"12320","locality":"Conques"}
{"name":"La Balette","address":"rte de Port-Vendres","postalCode":"66190","locality":"Collioure"}
{"name":"Py-r","address":"19 descente de la Halle-aux-Poissons","postalCode":"31000","locality":"Toulouse"}
{"name":"Le Saint-Estève","address":"2250 route cézanne D17","postalCode":"13100","locality":"Le Tholonet"}
{"name":"Numéro 3","address":"3 rue du Général de Gaulle","postalCode":"78490","locality":"Le Tremblay-sur-Mauldre"}
{"name":"Les Bacchanales","address":"247 avenue de Provence","postalCode":"06140","locality":"VENCE"}
{"name":"Kasbür","address":"8 Rue de Dettwiller","postalCode":"67700","locality":"Monswiller"}
{"name":"La Nouvelle Auberge","address":"9 route Nationale","postalCode":"68230","locality":"Wihr-au-Val"}
{"name":"Saturne","address":"17 r. N.-D.-des-Victoires","postalCode":"75002","locality":"Paris"}
{"name":"Les Bories","address":"rte de l'Abbaye de Sénanque","postalCode":"84220","locality":"Gordes"}
{"name":"Auberge Le Prieuré","address":"4 Grand'Rue","postalCode":"47310","locality":"Moirax"}
{"name":"La Ferme de l'Hospital","address":"rte du golf","postalCode":"74160","locality":"Bossey"}
{"name":"Hostellerie Les Gorges de Pennafort","address":"8660 RD 25","postalCode":"83830","locality":"Callas"}
{"name":"Domaine de Rochevilaine","address":"à la Pointe de Pen Lan","postalCode":"56190","locality":"Billiers"}
{"name":"Le Gabriel","address":"42 Avenue Gabriel","postalCode":"75008","locality":"Paris"}
{"name":"La Gloire","address":"74 av. du Gén.-de-Gaulle","postalCode":"45200","locality":"Montargis"}
{"name":"La Table de Nans","address":"corniche du Liouquet","postalCode":"13600","locality":"La Ciotat"}
{"name":"Auberge Grand'Maison","address":"1 r. Léon-le-Cerf","postalCode":"22530","locality":"Mûr-de-Bretagne"}
{"name":"La Pyramide-Patrick Henriroux","address":"14 Boulevard Fernand Point","postalCode":"38200","locality":"Vienne"}
{"name":"1920","address":"373 chemin des follières","postalCode":"74120","locality":"Megève"}
{"name":"Michel Sarran","address":"21 bd A.-Duportal","postalCode":"31000","locality":"Toulouse"}
{"name":"Toya","address":"av. Jean-Monnet","postalCode":"57380","locality":"Faulquemont"}
{"name":"64° Le Restaurant","address":"9-13 Rue du Général de Gaulle","postalCode":"68240","locality":"Kaysersberg"}
{"name":"Château de Mirambeau","address":"1 Avenue des Comtes Duchatel","postalCode":"17150","locality":"Mirambeau"}
{"name":"Jérémy Galvan","address":"Rue du Boeuf","postalCode":"69005","locality":"Lyon 05"}
{"name":"La Matelote","address":"80 Boulevard Ste Beuve","postalCode":"62200","locality":"BOULOGNE-SUR-MER"}
{"name":"Le Grand Cerf","address":"50 rte Nationale","postalCode":"51500","locality":"Montchenot"}
{"name":"Agapé","address":"51 rue Jouffroy-d'Abbans","postalCode":"75017","locality":"Paris 17"}
{"name":"L'Odas","address":"4 Passage Maurice Lenfant","postalCode":"76000","locality":"Rouen"}
{"name":"Ze Kitchen Galerie","address":"4 r. des Grands-Augustins","postalCode":"75006","locality":"Paris"}
{"name":"SEPT","address":"7 pl. St-Sernin","postalCode":"31000","locality":"Toulouse"}
{"name":"Le Puits St-Jacques","address":"av. Victor-Capoul","postalCode":"32600","locality":"Pujaudran"}
{"name":"Frédéric Doucet","address":"2 avenue de la Libération","postalCode":"71120","locality":"Charolles"}
{"name":"En Pleine Nature","address":"6 pl. de la Mairie","postalCode":"31130","locality":"Fonsegrives"}
{"name":"Le Passe Temps","address":"52 Rue Tronchet","postalCode":"69006","locality":"Lyon"}
{"name":"La Bonne Auberge","address":"15 r. Nationale","postalCode":"57350","locality":"Stiring-Wendel"}
{"name":"Grand Hôtel du Lion d'Or","address":"69 r. Clemenceau","postalCode":"41200","locality":"Romorantin-Lanthenay"}
{"name":"Le Jardin de Benjamin","address":"Route de Salernes","postalCode":"83510","locality":"Lorgues"}
{"name":"Une Table au Sud","address":"2 quai du Port","postalCode":"13002","locality":"Marseille"}
{"name":"Le Pré - Xavier Beaudiment","address":"3 Route de la Baraque","postalCode":"63830","locality":"Durtol"}
{"name":"Le Pressoir","address":"7 r. de l'Hôpital","postalCode":"56890","locality":"Saint-Avé"}
{"name":"Le Brittany","address":"bd Ste-Barbe","postalCode":"29681","locality":"Roscoff"}
{"name":"L'O des Vignes","address":"r. du Bourg","postalCode":"71960","locality":"Fuissé"}
{"name":"Le Cinq","address":"31 av. George V","postalCode":"75008","locality":"Paris 08"}
{"name":"Val d'Auge","address":"805 av. du Gén.-de-Gaulle","postalCode":"59910","locality":"Bondues"}
{"name":"L'Alchémille","address":"53 rte de Lapoutroie","postalCode":"68240","locality":"Kaysersberg"}
{"name":"Le Prieuré","address":"r. de la Mairie","postalCode":"42820","locality":"Ambierle"}
{"name":"L'Escarbille","address":"8 Rue de Vélizy","postalCode":"92190","locality":"Meudon"}
{"name":"La Rastègue","address":"48 bd du Levant","postalCode":"83230","locality":"Bormes-les-Mimosas"}
{"name":"La Chassagnette","address":"route du Sambuc","postalCode":"13200","locality":"Arles"}
{"name":"Le Pavillon des Boulevards","address":"120 r. Croix-de-Seguey","postalCode":"33000","locality":"Bordeaux"}
{"name":"Dyades au Domaine des Étangs","address":"Les Etangs","postalCode":"16310","locality":"MASSIGNAC"}
{"name":"Le Puits du Trésor","address":"21 rte des Quatre-Châteaux","postalCode":"11600","locality":"Lastours"}
{"name":"Le Domaine du Colombier","address":"270 Chemin de Malombre","postalCode":"26780","locality":"Malataverne"}
{"name":"Le Clos des Sens","address":"13 r. J. -Mermoz","postalCode":"74940","locality":"Annecy"}
{"name":"La Table de l'Alpaga","address":"66 Allée des Marmousets","postalCode":"74120","locality":"Megève"}
{"name":"Le Haut-Allier","address":"LE PONT D ALLEYRAS","postalCode":"43580","locality":"Alleyras"}
{"name":"Tour d'Argent","address":"15 quai de la Tournelle","postalCode":"75005","locality":"Paris"}
{"name":"Anne de Bretagne","address":"163, Boulevard de la Tara","postalCode":"44770","locality":"La Plaine-sur-Mer"}
{"name":"Le Kaïku","address":"17 r. de la République","postalCode":"64500","locality":"Saint-Jean-de-Luz"}
{"name":"Le Jardin des Plumes","address":"1 Rue du Milieu","postalCode":"27620","locality":"Giverny"}
{"name":"En Marge","address":"1204 rte de la Croix-Falgarde","postalCode":"31320","locality":"AUREVILLE"}
{"name":"Le Kintessence","address":"Rue des Clarines","postalCode":"73120","locality":"Courchevel 1850"}
{"name":"La Grange de Belle-Église","address":"28 bd René-Aimé-Lagabrielle","postalCode":"60540","locality":"Belle-Église"}
{"name":"Maison Kieny","address":"7 Rue du Général de Gaulle","postalCode":"68400","locality":"Riedisheim"}
{"name":"Casadelmar","address":"Route de la Plage de Palombaggia","postalCode":"20137","locality":"Porto-Vecchio"}
{"name":"Alan Geaam","address":"19 Rue Lauriston","postalCode":"75016","locality":"Paris"}
{"name":"La Coopérative","address":"2A Route de Caladroy","postalCode":"66720","locality":"Bélesta"}
{"name":"Hostellerie de l'Abbaye de la Celle","address":"10 Place Général de Gaulle","postalCode":"83170","locality":"La Celle"}
{"name":"Côté Jardin","address":"14 rte de Bourges","postalCode":"45500","locality":"Gien"}
{"name":"Le Pré Catelan","address":"Route de Suresnes","postalCode":"75016","locality":"Paris"}
{"name":"I Salti","address":"route du Reginu","postalCode":"20226","locality":"Belgodère"}
{"name":"Apicius","address":"Marché Saint Pierre 1 étage","postalCode":"63000","locality":"Clermont-Ferrand"}
{"name":"La Marelle","address":"1593 av. de Lyon","postalCode":"01960","locality":"Péronnas"}
{"name":"La Table de Manville","address":"Domaine de Manville - D27","postalCode":"13520","locality":"Les Baux-de-Provence"}
{"name":"Haut Bonheur de la Table","address":"18 Grand-Place","postalCode":"59670","locality":"Cassel"}
{"name":"Le Kléber","address":"6 r. A. -Dumont","postalCode":"26400","locality":"Crest"}
{"name":"Le Georges","address":"22 pl. des Épars","postalCode":"28000","locality":"CHARTRES"}
{"name":"Épicure","address":"112 r. Fg St-Honoré","postalCode":"75008","locality":"Paris 08"}
{"name":"Faventia","address":"3100 route de Bagnols-en-Forêt","postalCode":"83440","locality":"Tourrettes"}
{"name":"Maximilien","address":"19a rte Ostheim","postalCode":"68340","locality":"Zellenberg"}
{"name":"Gaya Rive Gauche par Pierre Gagnaire","address":"44 r. du Bac","postalCode":"75007","locality":"Paris"}
{"name":"Maison Rostang","address":"20 rue Rennequin","postalCode":"75017","locality":"Paris"}
{"name":"Château de Sully","address":"D6","postalCode":"14400","locality":"Sully"}
{"name":"La Fourchette du Printemps","address":"30 r. du Printemps","postalCode":"75017","locality":"Paris"}
{"name":"Restaurant de Lauzun","address":"3 bd de l'Esplanade","postalCode":"34150","locality":"Gignac"}
{"name":"Le Corot","address":"55 Rue de Versailles","postalCode":"92410","locality":"VILLE-D'AVRAY"}
{"name":"Le Jardin des Remparts","address":"10 rue Hôtel-Dieu","postalCode":"21200","locality":"Beaune"}
{"name":"Le Vieux Logis","address":"Le Bourg","postalCode":"24510","locality":"Trémolat"}
{"name":"Les Genêts","address":"21 bis Rue de l'Océan","postalCode":"85470","locality":"Brem-sur-Mer"}
{"name":"Restaurant du Château","address":"15 avenue des Reynats","postalCode":"24650","locality":"Chancelade"}
{"name":"ES","address":"91 r. de Grenelle","postalCode":"75007","locality":"Paris"}
{"name":"La Bastide de Moustiers","address":"Parc naturel régional du Verdon, Chemin de Quinson","postalCode":"04360","locality":"Moustiers-Sainte-Marie"}
{"name":"L'Épuisette","address":"158 Vallon-des-Auffes","postalCode":"13007","locality":"Marseille"}
{"name":"Auberge de l'Île Barbe","address":"1 Place Notre-Dame","postalCode":"69009","locality":"Lyon 09"}
{"name":"Le 1947","address":"Cheval Blanc Courchevel - Le Jardin Alpin","postalCode":"73120","locality":"Courchevel 1850"}
{"name":"Stéphane Carbone","address":"14 r. de Courtonne","postalCode":"14000","locality":"Caen"}
{"name":"Pertica","address":"15 pl. de la République","postalCode":"41100","locality":"Vendôme"}
{"name":"Septime","address":"80 r. de Charonne","postalCode":"75011","locality":"Paris"}
{"name":"Le Chantecler","address":"37 Promenade des Anglais","postalCode":"06000","locality":"NICE"}
{"name":"Le Bec au Cauchois","address":"22 Rue André Fiquet","postalCode":"76540","locality":"Valmont"}
{"name":"Alain Llorca","address":"350 Route de St-Paul","postalCode":"06480","locality":"La Colle-sur-Loup"}
{"name":"Au 14 Février","address":"36 r. du Bœuf","locality":"Lyon 05"}
{"name":"Auberge des Saints Pères","address":"212 av. de Nonneville","postalCode":"93600","locality":"Aulnay-sous-Bois"}
{"name":"L'Atelier de Jean-Luc Rabanel","address":"7 r. des Carmes","postalCode":"13200","locality":"Arles"}
{"name":"Auguste","address":"54 r. Bourgogne","postalCode":"75007","locality":"Paris 07"}
{"name":"Cayola","address":"76 promenade de Cayola","postalCode":"85180","locality":"Talmont-Saint-Hilaire"}
{"name":"Helen","address":"3 r.Berryer","postalCode":"75008","locality":"Paris"}
{"name":"Passage 53","address":"53 passage des Panoramas","postalCode":"75002","locality":"Paris"}
{"name":"Auberge St-Laurent","address":"1 rue Fontaine","postalCode":"68510","locality":"Sierentz"}
{"name":"Le Clair de la Plume","address":"Place du Mail","postalCode":"26230","locality":"Grignan"}
{"name":"Le Favre d'Anne","address":"21 bd du Mar.-Foch","postalCode":"49000","locality":"Angers"}
{"name":"Le Relais des Moines","address":"route de Ste-Roseline","postalCode":"83460","locality":"Les Arcs"}
{"name":"Antoine","address":"10 av. de New-York","postalCode":"75116","locality":"Paris 16"}
{"name":"Arpège","address":"84 Rue de Varenne","postalCode":"75007","locality":"Paris"}
{"name":"La Table du 11","address":"8 rue de la chancellerie","postalCode":"78000","locality":"Versailles"}
{"name":"Le Moulin de la Gorce","address":"D17","postalCode":"87800","locality":"La Roche-l'Abeille"}
{"name":"Quinsou","address":"33 r. de l'Abbé-Grégoire","postalCode":"75006","locality":"Paris"}
{"name":"La Table de Franck Putelat","address":"80 chemin des Anglais","postalCode":"11000","locality":"Carcassonne"}
{"name":"Henri et Joseph","address":"4 r. Léo-le-Bourgo","postalCode":"56100","locality":"Lorient"}
{"name":"Auberge St-Jean","address":"8 r. du Pont","postalCode":"33420","locality":"Saint-Jean-de-Blaignac"}
{"name":"La Roya","address":"plage de la Roya","postalCode":"20217","locality":"Saint-Florent"}
{"name":"Dominique Bucaille","address":"715 av. des Savels","postalCode":"04100","locality":"Manosque"}
{"name":"La Table des Merville","address":"3 place Richard","postalCode":"31320","locality":"Castanet-Tolosan"}
{"name":"Origine","address":"26 rampe Cauchoise","postalCode":"76000","locality":"Rouen"}
{"name":"Le Clocher des Pères","address":"D213","postalCode":"73130","locality":"Saint-Martin-sur-la-Chambre"}
{"name":"L'Arôme","address":"3 rue St-Philippe-du-Roule","postalCode":"75008","locality":"Paris 08"}
{"name":"La Marine","address":"3 r. Marie-Lemonnier","postalCode":"85330","locality":"L'Herbaudière"}
{"name":"Pierre Orsi","address":"Place Kléber","postalCode":"69006","locality":"Lyon 06"}
{"name":"Le Lido","address":"42 av. Napoléon-III","postalCode":"20110","locality":"Propriano"}
{"name":"Maximin Hellio","address":"64 Rue Gambetta","postalCode":"14800","locality":"DEAUVILLE"}
{"name":"Le Cerisier","address":"3 rue de la Gare","postalCode":"62840","locality":"LAVENTIE"}
{"name":"La Table de Chaintré","address":"72 pl. du Luminaire","postalCode":"71570","locality":"Chaintré"}
{"name":"Les Morainières","address":"route de Marétel","postalCode":"73170","locality":"Jongieux"}
{"name":"La Table","address":"32 Rue de la Barre","postalCode":"59000","locality":"Lille"}
{"name":"Meulien","address":"1 bis av. des Alpes","postalCode":"71700","locality":"Tournus"}
{"name":"La Table de Patrick Raingeard","address":"1312 av. Raymond-Poincaré","postalCode":"06360","locality":"EZE-BORD-DE-MER"}
{"name":"Greuze","address":"1 r. A. Thibaudet","postalCode":"71700","locality":"Tournus"}
{"name":"Relais de la Poste","address":"21 rue du Gén. -de-Gaulle","postalCode":"67610","locality":"LA-WANTZENAU"}
{"name":"La Cachette","address":"Rue des Cévennes","postalCode":"26000","locality":"Valence"}
{"name":"Hostellerie de Plaisance","address":"5 place du Clocher","postalCode":"33330","locality":"Saint-Emilion"}
{"name":"Frédéric Simonin","address":"25 rue Bayen","postalCode":"75017","locality":"Paris"}
{"name":"L'Ekrin by Laurent Azoulay","address":"Route de la Montée","postalCode":"73550","locality":"MERIBEL"}
{"name":"Les Fresques","address":"D18","postalCode":"24240","locality":"Monestier"}
{"name":"L'Auberge de la Pomme","address":"44 rue de l' eure","postalCode":"27340","locality":"Les Damps"}
{"name":"Le Chabichou","address":"90 Route des Chenus","postalCode":"73120","locality":"Courchevel 1850"}
{"name":"Maison Clovis","address":"19 bd Brotteaux","postalCode":"69006","locality":"Lyon"}
{"name":"Le Pêché Gourmand","address":"2 rte de Gap","postalCode":"05100","locality":"Briançon"}
{"name":"Le Baudelaire","address":"6-8 rue Duphot","postalCode":"75001","locality":"Paris 01"}
{"name":"Le Bistro des Saveurs","address":"35 Rue de Sélestat","postalCode":"67210","locality":"Obernai"}
{"name":"La Table Saint-Crescent","address":"route de Perpignan","postalCode":"11100","locality":"Narbonne"}
{"name":"Aux Pesked","address":"59 Rue du Légué","postalCode":"22000","locality":"Saint-Brieuc"}
{"name":"Les Bas-Rupts","address":"181 rte de la Bresse","postalCode":"88400","locality":"Bas-Rupts"}
{"name":"Ô Flaveurs","address":"Château de Chilly","postalCode":"74140","locality":"Douvaine"}
{"name":"1741","address":"22 Quai des Bateliers","postalCode":"67000","locality":"Strasbourg"}
{"name":"La Table d'Eugène","address":"18 r. Eugène-Sue","postalCode":"75018","locality":"Paris"}
{"name":"Le Clarence","address":"31 Avenue Franklin Delano Roosevelt","postalCode":"75008","locality":"Paris 08"}
{"name":"L'Oustau de Baumanière","address":"Village des Baux-de-Provence","postalCode":"13520","locality":"Les Baux-de-Provence"}
{"name":"Sylvestre","address":"79 rue St-Dominique","postalCode":"75007","locality":"Paris"}
{"name":"Alléno Paris au Pavillon Ledoyen","address":"8 avenue Dutuit","postalCode":"75008","locality":"Paris"}
{"name":"Le Prince Noir - Vivien Durand","address":"1 rue du Prince Noir","postalCode":"33310","locality":"Lormont"}
{"name":"Yoann Conte","address":"13 Vieille-Route-des-Pensières","postalCode":"74290","locality":"Veyrier-du-Lac"}
{"name":"Jérôme Feck","address":"19 pl. Mgr-Tissier","postalCode":"51000","locality":"Châlons-en-Champagne"}
{"name":"Mère Brazier","address":"12 rue Royale","postalCode":"69001","locality":"LYON"}
{"name":"Qui plume la Lune","address":"50 r. Amelot","postalCode":"75011","locality":"Paris 11"}
{"name":"Pierre","address":"7-9 rue Joseph Dufour","postalCode":"71000","locality":"Mâcon"}
{"name":"Les Trois Soleils de Montal","address":"St-Jean-Lespinasse","postalCode":"46400","locality":"Saint-Céré"}
{"name":"Le 39V","address":"39 Avenue George V","postalCode":"75008","locality":"Paris 08"}
{"name":"Le Carré d'Alethius","address":"4 r. Paul-Bertois","postalCode":"07800","locality":"Charmes-sur-Rhône"}
{"name":"Hostellerie de Levernois","address":"Rue du Golf","postalCode":"21200","locality":"Levernois"}
{"name":"Le Pergolèse","address":"40, Rue Pergolèse","postalCode":"75016","locality":"Paris"}
{"name":"Les Climats","address":"41 rue de Lille","postalCode":"75007","locality":"Paris 07"}
{"name":"Le Champ des Lunes","address":"route de Roquefraîche","postalCode":"84360","locality":"Lauris"}
{"name":"Auberge des Templiers","address":"D2007","postalCode":"45290","locality":"Les Bézards"}
{"name":"Auberge du Vieux Puits","address":"5 Avenue Saint-Victor","postalCode":"11360","locality":"Fontjoncouse"}
{"name":"Skab","address":"7 Rue de la République","postalCode":"30000","locality":"nimes"}
{"name":"Auberge de la Charme","address":"12 r. de la Charme","postalCode":"21370","locality":"Prenois"}
{"name":"La Coquerie","address":"1 chemin du Cimetière-Marin","postalCode":"34200","locality":"Sète"}
{"name":"Lou Cigalon-Maison Martin","address":"6 bd Carnot","postalCode":"06560","locality":"Valbonne"}
{"name":"Le Sérac","address":"22 r. de la Comtesse","postalCode":"74170","locality":"Saint-Gervais-les-Bains"}
{"name":"Jin","address":"6 Rue de la Sourdière","postalCode":"75001","locality":"Paris"}
{"name":"Maison Jeunet","address":"9 r. de l'Hôtel-de-Ville","postalCode":"39600","locality":"Arbois"}
{"name":"Auberge La Pomme d'Api","address":"49 r. Verderel","postalCode":"29250","locality":"Saint-Pol-de-Léon"}
{"name":"Une Île","address":"9 r. Max-Richard","postalCode":"49000","locality":"Angers"}
{"name":"La Table du Connétable","address":"4 Rue du Connétable","postalCode":"60500","locality":"Chantilly"}
{"name":"Le Cerf","address":"30 r. du Gén.-de-Gaulle","postalCode":"67520","locality":"Marlenheim"}
{"name":"Hostellerie la Montagne","address":"10 rue Pisseloup","postalCode":"52330","locality":"COLOMBEY-LES-DEUX-EGLISES"}
{"name":"Likoké","address":"7 rte de Païolive","postalCode":"07140","locality":"Les Vans"}
{"name":"Château du Mont Joly","address":"6 r. du Mont-Joly","postalCode":"39100","locality":"Sampans"}
{"name":"La Bastide de Capelongue","address":"Chemin des Cabanes","postalCode":"84480","locality":"Bonnieux"}
{"name":"La Table de la Ferme","address":"Vallée de l'Ortolo","postalCode":"20100","locality":"Sartène"}
{"name":"Le Quincangrogne","address":"7 Rue de l'Abreuvoir","postalCode":"77400","locality":"Dampmart"}
{"name":"La Chaumière","address":"346 av. du Mar. -Juin","postalCode":"39100","locality":"Dole"}
{"name":"Rackham","address":"27 pl. Lacaze Duthiers rčs de l'église","postalCode":"29680","locality":"ROSCOFF"}
{"name":"Stéphane Tournié - Les Jardins de l'Opéra","address":"1 place du Capitole","postalCode":"31000","locality":"Toulouse"}
{"name":"114, Faubourg","address":"114 r. Fg St-Honoré","postalCode":"75008","locality":"Paris 08"}
{"name":"Loiseau des Ducs","address":"3 Rue Vauban","postalCode":"21000","locality":"Dijon"}
{"name":"La Gouesnière","address":"1 Le Limonay","postalCode":"35350","locality":"Saint-Méloir-des-Ondes"}
{"name":"L'Abeille","address":"10 Avenue d'Iéna","postalCode":"75016","locality":"Paris 16"}
{"name":"L'Esquisse","address":"21 rue Royale","postalCode":"74000","locality":"Annecy"}
{"name":"J.-M. Pérochon","address":"63 avenue de la Grand'Roche","postalCode":"85470","locality":"Brétignolles-sur-Mer"}
{"name":"Hostellerie du Rosenmeer","address":"45 avenue de la Gare","postalCode":"67560","locality":"ROSHEIM"}
{"name":"Le Gambetta","address":"12 r. Gambetta","postalCode":"49400","locality":"Saumur"}
{"name":"Le Bois sans Feuilles","address":"728 Route de Villerest","postalCode":"42155","locality":"Ouches"}
{"name":"Christopher Coutanceau","address":"Promenade de la Concurrence","postalCode":"17000","locality":"La Rochelle"}
{"name":"Le Bistrot de Lagarde","address":"rte d'Apt","postalCode":"84400","locality":"Lagarde-d'Apt"}
{"name":"Pur' - Jean-François Rouquette","address":"5 r. de la Paix","postalCode":"75002","locality":"Paris 02"}
{"name":"L'Atelier d'Edmond","address":"au Fornet","postalCode":"73150","locality":"Val-d'Isère"}
{"name":"Les Berceaux","address":"13 rue des Berceaux","postalCode":"51200","locality":"Épernay"}
{"name":"Le Park 45","address":"45 bd de la Croisette","postalCode":"06400","locality":"Cannes"}
{"name":"AM par Alexandre Mazzia","address":"9 rue François Rocca","postalCode":"13008","locality":"Marseille"}
{"name":"L'Ambroisie","address":"9 Place des Vosges","postalCode":"75004","locality":"Paris"}
{"name":"Le Gourmet de Sèze","address":"125 Rue de Sèze","postalCode":"69006","locality":"Lyon"}
{"name":"Le Prieuré","address":"7 pl. du Chapitre","postalCode":"30400","locality":"Villeneuve-lès-Avignon"}
{"name":"Le Saint-Martin","address":"Avenue des Templiers","postalCode":"06140","locality":"Vence"}
{"name":"Le Petit Nice","address":"Anse de Maldormé - Corniche J. F. Kennedy","postalCode":"13007","locality":"Marseille 07"}
{"name":"Terre-Mer","address":"16 r. du Jeu-de-Paume","postalCode":"56400","locality":"Auray"}
{"name":"Restaurant du Palais Royal","address":"110 Galerie de Valois - Jardin du Palais Royal","postalCode":"75001","locality":"Paris 01"}
{"name":"David Toutain","address":"29 r. Surcouf","postalCode":"75007","locality":"Paris"}
{"name":"Le Carrousel","address":"14 rue du Pont de Morge","postalCode":"63350","locality":"MARINGUES"}
{"name":"Jean-Claude Leclerc","address":"12 rue St-Adjutor","postalCode":"63000","locality":"Clermont-Ferrand"}
