{
    "name": "Château de Vault de Lugny",
    "address": "11, rue du Château",
    "postalCode": "89200",
    "locality": "Vault-de-Lugny"
}{
    "name": "Au Canard Gourmand",
    "address": "La Rente",
    "postalCode": "32130",
    "locality": "Samatan"
}{
    "name": "Zdank Bistrot",
    "address": "14 r. Fantin-Latour",
    "postalCode": "38000",
    "locality": "Grenoble"
}{
    "name": "Le 1862",
    "address": "4 av. de Laugerie",
    "postalCode": "24620",
    "locality": "Les Eyzies-de-Tayac"
}{
    "name": "Stéphane Léger",
    "address": "Parvis Kennedy - 1er étage",
    "postalCode": "83700",
    "locality": "Saint-Raphaël"
}{
    "name": "La Gouesnière",
    "address": "1 Le Limonay",
    "postalCode": "35350",
    "locality": "Saint-Méloir-des-Ondes"
}{
    "name": "L'Écrin",
    "address": "10 place de la Concorde",
    "postalCode": "75008",
    "locality": "Paris"
}{
    "name": "Au Moulin",
    "address": "2 impasse du Moulin",
    "postalCode": "67610",
    "locality": "La Wantzenau"
}{
    "name": "Le Bon Accueil",
    "address": "1 r. de Laval",
    "postalCode": "54630",
    "locality": "Richardménil"
}{
    "name": "Mitch",
    "address": "26 r. des Tanneurs",
    "postalCode": "13100",
    "locality": "Aix-en-Provence"
}{
    "name": "Le Relais d'Alsace",
    "address": "28 r. d'Alsace",
    "postalCode": "90150",
    "locality": "Foussemagne"
}{
    "name": "La Tassée",
    "address": "Rue de la Charité",
    "postalCode": "69002",
    "locality": "Lyon 02"
}{
    "name": "Restaurant du Port",
    "address": "5 pl. du Port",
    "postalCode": "29241",
    "locality": "Locquirec"
}{
    "name": "Le Saint-Loup",
    "address": "D906, 71240 SAINT-LOUP-DE-VARENNES",
    "postalCode": "71100",
    "locality": "CHALON-SUR-SAÔNE"
}{
    "name": "La Belle Meunière",
    "address": "25 av. Vallée",
    "postalCode": "63130",
    "locality": "Royat"
}{
    "name": "Le Petit Paris",
    "address": "12 r. de Moselle",
    "postalCode": "68100",
    "locality": "Mulhouse"
}{
    "name": "Ô Prestige",
    "address": "4 r. du Cygne",
    "postalCode": "49150",
    "locality": "Baugé-en-Anjou"
}{
    "name": "Les Terrasses d'Uriage",
    "address": "pl. Déesse-Hygie",
    "postalCode": "38410",
    "locality": "Uriage-les-Bains"
}{
    "name": "La Villa Madie",
    "address": "av. du Revestel",
    "postalCode": "13260",
    "locality": "Cassis"
}{
    "name": "L'Imaginaire",
    "address": "1 route de la Fontaine-St-Julien",
    "postalCode": "24120",
    "locality": "Terrasson-Lavilledieu"
}{
    "name": "La Galinette",
    "address": "23 r. Jean Payra",
    "postalCode": "66000",
    "locality": "Perpignan"
}{
    "name": "La Treille Muscate",
    "address": "pl. des Vignerons",
    "postalCode": "19140",
    "locality": "Uzerche"
}{
    "name": "Soon Grill",
    "address": "78 rue des Tournelles",
    "postalCode": "75003",
    "locality": "PARIS"
}{
    "name": "Le Refuge des Gourmets",
    "address": "90 route des Framboises",
    "postalCode": "74140",
    "locality": "Machilly"
}{
    "name": "Louis",
    "address": "23 Rue de la Victoire",
    "postalCode": "75009",
    "locality": "PARIS"
}{
    "name": "24 - Le Restaurant",
    "address": "24 Rue Jean Mermoz",
    "postalCode": "75008",
    "locality": "Paris"
}{
    "name": "Auberge Larochette",
    "address": "Lieu Dit le Bourg",
    "postalCode": "71520",
    "locality": "Bourgvilain"
}{
    "name": "L'Arbousier",
    "address": "BP 94",
    "postalCode": "20166",
    "locality": "Porticcio"
}{
    "name": "Claude Darroze",
    "address": "95 cours Gén. Leclerc",
    "postalCode": "33210",
    "locality": "Langon"
}{
    "name": "L'Esquisse",
    "address": "21 rue Royale",
    "postalCode": "74000",
    "locality": "Annecy"
}{
    "name": "La Rivière",
    "address": "3 Rue des Dentelles",
    "postalCode": "67000",
    "locality": "Strasbourg"
}{
    "name": "Cellier-Morel",
    "address": "27 r. Aiguillerie",
    "postalCode": "34000",
    "locality": "Montpellier"
}{
    "name": "Schaeffer",
    "address": "34 Quai Jules Roche",
    "postalCode": "07340",
    "locality": "Serrières"
}{
    "name": "La Passerelle",
    "address": "172 quai de Stalingrad",
    "postalCode": "92130",
    "locality": "Issy-les-Moulineaux"
}{
    "name": "Penati al Baretto",
    "address": "9 rue Balzac",
    "postalCode": "75008",
    "locality": "Paris 08"
}{
    "name": "Chez Daniel et Julia - Restaurant du Rivage",
    "address": "Route de Fabrégas",
    "postalCode": "83500",
    "locality": "La Seyne-sur-Mer"
}{
    "name": "Le Champêtre",
    "address": "89 rte de Tours",
    "postalCode": "18100",
    "locality": "Vierzon"
}{
    "name": "L'Anthocyane",
    "address": "25 av. Ernest-Renan",
    "postalCode": "22300",
    "locality": "Lannion"
}{
    "name": "Maison Christian Étienne",
    "address": "10 Rue de Mons",
    "postalCode": "84000",
    "locality": "Avignon"
}{
    "name": "Château de Montreuil",
    "address": "4 chaussée des Capucins",
    "postalCode": "62170",
    "locality": "Montreuil"
}{
    "name": "64° Le Restaurant",
    "address": "9-13 Rue du Général de Gaulle",
    "postalCode": "68240",
    "locality": "Kaysersberg"
}{
    "name": "JY'S",
    "address": "17 r. de la Poissonnerie",
    "postalCode": "68000",
    "locality": "Colmar"
}{
    "name": "Hostellerie du Château des Monthairons",
    "address": "26 route de verdun",
    "postalCode": "55320",
    "locality": "Les Monthairons"
}{
    "name": "L'Orangerie du Château",
    "address": "1 Avenue du Docteur Jean Laigret",
    "postalCode": "41000",
    "locality": "Blois"
}{
    "name": "Le Pont Rouge",
    "address": "chemin des Perrays",
    "postalCode": "72000",
    "locality": "Le Mans"
}{
    "name": "Les Vénètes",
    "address": "à la pointe",
    "postalCode": "56610",
    "locality": "Arradon"
}{
    "name": "Au Site Normand",
    "address": "2 r. des Chatelets",
    "postalCode": "14570",
    "locality": "Clécy"
}{
    "name": "Influences",
    "address": "36 Rue Saint-Sernin",
    "postalCode": "33000",
    "locality": "Bordeaux"
}{
    "name": "La Tour",
    "address": "7 ter r. Fraisse",
    "postalCode": "43220",
    "locality": "Dunières"
}{
    "name": "Le Moulin du Roc",
    "address": "Avenue Eugène Le Roy",
    "postalCode": "24530",
    "locality": "Champagnac-de-Belair"
}{
    "name": "La Galerie B",
    "address": "26-28 Grande-Rue",
    "postalCode": "37600",
    "locality": "Loches"
}{
    "name": "Le St-Martial",
    "address": "au bourg",
    "postalCode": "24250",
    "locality": "Saint-Martial-de-Nabirat"
}{
    "name": "Petrossian - Le 144",
    "address": "144 rue de l'Université",
    "postalCode": "75007",
    "locality": "Paris 07"
}{
    "name": "Le Vallon de Valrugues",
    "address": "chemin Canto Cigalo",
    "postalCode": "13210",
    "locality": "Saint-Rémy-de-Provence"
}{
    "name": "Les Coquelicots",
    "address": "D920",
    "postalCode": "19270",
    "locality": "Saint-Pardoux-l'Ortigier"
}{
    "name": "Saint-Jacques",
    "address": "39 avenue Foch",
    "postalCode": "19400",
    "locality": "ARGENTAT"
}{
    "name": "Les Mets de Mo",
    "address": "29 Avenue Pierre Brossolette",
    "postalCode": "94000",
    "locality": "Créteil"
}{
    "name": "Le Montaigu",
    "address": "Domaine de la Bretesche",
    "postalCode": "44780",
    "locality": "Missillac"
}{
    "name": "Ar Men Du",
    "address": "47 rue des îles",
    "postalCode": "29920",
    "locality": "Névez"
}{
    "name": "Les Écuries de Richelieu",
    "address": "21 rue du Dr-Zamenhof",
    "postalCode": "92500",
    "locality": "RUEIL-MALMAISON"
}{
    "name": "Le Poisson d'Or",
    "address": "allée du Parc",
    "postalCode": "71000",
    "locality": "Mâcon"
}{
    "name": "J'MCA",
    "address": "12 Rue André Vildieu",
    "postalCode": "89580",
    "locality": "Coulanges-la-Vineuse"
}{
    "name": "Pierre Sang on Gambey",
    "address": "6 r. Gambey",
    "postalCode": "75011",
    "locality": "Paris"
}{
    "name": "Hostellerie de Levernois",
    "address": "Rue du Golf",
    "postalCode": "21200",
    "locality": "Levernois"
}{
    "name": "La Table 101",
    "address": "101 r. Moncey",
    "postalCode": "69003",
    "locality": "Lyon"
}{
    "name": "Ma Table en Ville",
    "address": "50 r. de Strasbourg",
    "postalCode": "71000",
    "locality": "Mâcon"
}{
    "name": "Logis de la Cadène",
    "address": "Place du Marche au Bois",
    "postalCode": "33330",
    "locality": "Saint Emilion"
}{
    "name": "Bello Visto",
    "address": "Place des Barri",
    "postalCode": "83580",
    "locality": "Gassin"
}{
    "name": "Le Nid",
    "address": "37 Boulevard Jean Moulin",
    "postalCode": "83780",
    "locality": "Flayosc"
}{
    "name": "Horizon",
    "address": "575 avenue Charles de Gaulle",
    "postalCode": "83500",
    "locality": "La Seyne-sur-Mer"
}{
    "name": "Ed.Em",
    "address": "4 imp. Chenevottes",
    "postalCode": "21190",
    "locality": "Chassagne-Montrachet"
}{
    "name": "Auberge Joseph Mellot",
    "address": "16 Nouvelle-Place",
    "postalCode": "18300",
    "locality": "Sancerre"
}{
    "name": "L'Orangerie",
    "address": "31 Avenue George-V",
    "postalCode": "75008",
    "locality": "Paris"
}{
    "name": "Auberge du Poids Public",
    "address": "Route de toulouse",
    "postalCode": "31540",
    "locality": "Saint-Félix-Lauragais"
}{
    "name": "Restaurant de Bastard",
    "address": "Rue Lagrange",
    "postalCode": "32700",
    "locality": "Lectoure"
}{
    "name": "La Presqu'île",
    "address": "Quartier Port Miou Esplanade Presqu’île",
    "postalCode": "13260",
    "locality": "Cassis"
}{
    "name": "Au Romans du Vercors",
    "address": "Grande Rue",
    "postalCode": "38160",
    "locality": "Saint-Romans"
}{
    "name": "Porte Guillaume",
    "address": "Angle de la Rue du Docteur Maret et de la Rue de la Liberté",
    "postalCode": "21000",
    "locality": "Dijon"
}{
    "name": "Le Percolateur",
    "address": "20 rue de Turin",
    "postalCode": "75008",
    "locality": "Paris 08"
}{
    "name": "Villa René Lalique",
    "address": "18 Rue Bellevue",
    "postalCode": "67290",
    "locality": "Wingen-sur-Moder"
}{
    "name": "Le Chiberta",
    "address": "3 Rue Arsène Houssaye",
    "postalCode": "75008",
    "locality": "Paris 08"
}{
    "name": "L'Ambroisie",
    "address": "9 Place des Vosges",
    "postalCode": "75004",
    "locality": "Paris"
}{
    "name": "Le Gonfalon",
    "address": "2 Rue de l'Église",
    "postalCode": "77910",
    "locality": "Germigny-l'Évêque"
}{
    "name": "Le George",
    "address": "31 Avenue George V",
    "postalCode": "75008",
    "locality": "Paris"
}{
    "name": "Papillon",
    "address": "8 r. Meissonier",
    "postalCode": "75017",
    "locality": "Paris"
}{
    "name": "Le Baluchon",
    "address": "12 av. du Maréchal-Foch",
    "postalCode": "31110",
    "locality": "Bagnères-de-Luchon"
}{
    "name": "La Table du Clos",
    "address": "49 avenue du general de gaulle",
    "postalCode": "63300",
    "locality": "thiers"
}{
    "name": "Château de Noizay",
    "address": "Promenade de Waulsort",
    "postalCode": "37210",
    "locality": "Noizay"
}{
    "name": "Julien Binz",
    "address": "7 Rue des Cigognes",
    "postalCode": "68770",
    "locality": "Ammerschwihr"
}{
    "name": "Cav' S",
    "address": "1 Rue d'Alsace-Lorraine",
    "postalCode": "89100",
    "locality": "Sens"
}{
    "name": "Le Spinnaker",
    "address": "52 rue mirabeau",
    "postalCode": "14800",
    "locality": "Deauville"
}{
    "name": "Les Palmiers",
    "address": "31 bis Avenue de Montpellier",
    "postalCode": "34140",
    "locality": "Mèze"
}{
    "name": "Ermitage de Corton",
    "address": "D 974",
    "postalCode": "21200",
    "locality": "Chorey-lès-Beaune"
}{
    "name": "La Table de La Butte",
    "address": "10 rue de la Mer",
    "postalCode": "29260",
    "locality": "PLOUIDER"
}{
    "name": "L'En-but",
    "address": "107 avenue de la république",
    "postalCode": "63000",
    "locality": "Clermont-Ferrand"
}{
    "name": "Paul Bocuse",
    "address": "40 Rue de la Plage",
    "postalCode": "69660",
    "locality": "Collonges-au-Mont-d'Or"
}{
    "name": "En Catimini",
    "address": "Le Château 16, place de la République",
    "postalCode": "11200",
    "locality": "Ferrals-les-Corbières"
}{
    "name": "Grand Hôtel du Lion d'Or",
    "address": "69 r. Clemenceau",
    "postalCode": "41200",
    "locality": "Romorantin-Lanthenay"
}{
    "name": "Les Jardins de Sophie",
    "address": "Domaine de la Moinaudière, rte du Valtin",
    "postalCode": "88400",
    "locality": "Xonrupt-Longemer"
}{
    "name": "Les Santons",
    "address": "pl. Pomey",
    "postalCode": "04360",
    "locality": "Moustiers-Ste-Marie"
}{
    "name": "Vincent Croizard",
    "address": "17 rue des Chassaintes",
    "postalCode": "30000",
    "locality": "Nîmes"
}{
    "name": "Manoir de la Roseraie",
    "address": "1, chemin des Grands Prés",
    "postalCode": "26230",
    "locality": "Grignan"
}{
    "name": "La Bastide St-Antoine",
    "address": "48 av. Henri-Dunant",
    "postalCode": "06130",
    "locality": "Grasse"
}{
    "name": "Le Moulin de Valaurie",
    "address": "Le Foulon",
    "postalCode": "26230",
    "locality": "Valaurie"
}{
    "name": "La Ruelle",
    "address": "6 r. Trois-Notre-Dame",
    "postalCode": "16000",
    "locality": "Angoulême"
}{
    "name": "La Cuisine de Bertrand",
    "address": "22 quai de Franqueville",
    "postalCode": "85100",
    "locality": "Les Sables-d'Olonne"
}{
    "name": "Le Colvert",
    "address": "14 rte de Pornic",
    "postalCode": "44580",
    "locality": "Fresnay-en-Retz"
}{
    "name": "Joséphine",
    "address": "6 r. du Parc",
    "postalCode": "68590",
    "locality": "Saint-Hippolyte"
}{
    "name": "Soléna",
    "address": "5 r. Chauffour",
    "postalCode": "33000",
    "locality": "Bordeaux"
}{
    "name": "Maison Blanche",
    "address": "15 Avenue Montaigne",
    "postalCode": "75008",
    "locality": "Paris 08"
}{
    "name": "La Maison des Bois - Marc Veyrat",
    "address": "Chemin Rural de Manigod au Col de la Croix Fry",
    "postalCode": "74230",
    "locality": "Manigod"
}{
    "name": "Les Caudalies",
    "address": "7/9, rue besse",
    "postalCode": "03200",
    "locality": "Vichy"
}{
    "name": "Le Gué du Holme",
    "address": "14 r. des Estuaires",
    "postalCode": "50220",
    "locality": "Saint-Quentin-sur-le-Homme"
}{
    "name": "La Pagode de Cos",
    "address": "42 avenue Gabriel",
    "postalCode": "75008",
    "locality": "Paris"
}{
    "name": "Manoir de la Régate",
    "address": "155 Route de Gachet",
    "postalCode": "44000",
    "locality": "Nantes"
}{
    "name": "Auberge du Bon Laboureur",
    "address": "6 r. Dr Bretonneau",
    "postalCode": "37150",
    "locality": "Chenonceaux"
}{
    "name": "Au Jardin d'Eden",
    "address": "1 av. Gén.-Dupas",
    "postalCode": "74500",
    "locality": "Évian-les-Bains"
}{
    "name": "Le Pressoir d'Argent - Gordon Ramsay",
    "address": "2,5 Place de la Comédie",
    "postalCode": "33000",
    "locality": "Bordeaux"
}{
    "name": "Auberge Le Centre Poitou",
    "address": "39 r. Nationale",
    "postalCode": "86600",
    "locality": "Coulombiers"
}{
    "name": "Jean des Sables",
    "address": "121 Boulevard de la Dune",
    "postalCode": "40150",
    "locality": "HOSSEGOR"
}{
    "name": "Cap",
    "address": "42 Boulevard Péreire",
    "postalCode": "75017",
    "locality": "Paris 17"
}{
    "name": "L'Atelier de Fred",
    "address": "12 r. St-Férreol",
    "postalCode": "66400",
    "locality": "Céret"
}{
    "name": "Ostapé",
    "address": "Chahatoenia",
    "postalCode": "64780",
    "locality": "Bidarray"
}{
    "name": "En Mets Fais ce Qu'il te Plaît",
    "address": "43 Rue Chevreul",
    "postalCode": "69007",
    "locality": "Lyon"
}{
    "name": "Le Pirate",
    "address": "1 le port",
    "postalCode": "20222",
    "locality": "Erbalunga"
}{
    "name": "Domaine des Séquoias",
    "address": "54 Vie-de-Boussieu",
    "postalCode": "38300",
    "locality": "Ruy"
}{
    "name": "Auberge Tiegezh",
    "address": "7 Place de la Gare",
    "postalCode": "56380",
    "locality": "Guer"
}{
    "name": "Le Relais 50",
    "address": "18 Quai du Port",
    "postalCode": "13002",
    "locality": "Marseille 02"
}{
    "name": "Aux Trois Pastoureaux",
    "address": "31 r. A. Gillet",
    "postalCode": "28200",
    "locality": "Châteaudun"
}{
    "name": "Le Champ des Lunes",
    "address": "route de Roquefraîche",
    "postalCode": "84360",
    "locality": "Lauris"
}{
    "name": "La Marelle",
    "address": "1593 av. de Lyon",
    "postalCode": "01960",
    "locality": "Péronnas"
}{
    "name": "Paloma",
    "address": "47 Avenue du Moulin de la Croix",
    "postalCode": "06250",
    "locality": "Mougins"
}{
    "name": "Le Kléber",
    "address": "6 r. A. -Dumont",
    "postalCode": "26400",
    "locality": "Crest"
}{
    "name": "Lou Cigalon-Maison Martin",
    "address": "6 bd Carnot",
    "postalCode": "06560",
    "locality": "Valbonne"
}{
    "name": "La Grande Maison de Bernard Magrez",
    "address": "10 Rue Labottière",
    "postalCode": "33000",
    "locality": "Bordeaux"
}{
    "name": "Castel de Très Girard",
    "address": "7 rue de Très Girard",
    "postalCode": "21220",
    "locality": "Morey-Saint-Denis"
}{
    "name": "Matsuhisa",
    "address": "37 avenue Hoche",
    "postalCode": "75008",
    "locality": "Paris"
}{
    "name": "Auberge du Pressoir",
    "address": "7 r. des Pachenottes",
    "postalCode": "54200",
    "locality": "Lucey"
}{
    "name": "Iida-Ya",
    "address": "18 Rue Arney",
    "postalCode": "39100",
    "locality": "Dole"
}{
    "name": "Les Jardins d'Épicure",
    "address": "16 Grande Rue",
    "postalCode": "95710",
    "locality": "Bray-et-Lû"
}{
    "name": "Hostellerie Bressane",
    "address": "2 route de Sens",
    "postalCode": "71330",
    "locality": "SAINT-GERMAIN-DU-BOIS"
}{
    "name": "Aromatique",
    "address": "14 r. de Strasbourg",
    "postalCode": "71100",
    "locality": "Chalon-sur-Saône"
}{
    "name": "Le Girelier",
    "address": "quai Jean-Jaurès",
    "postalCode": "83990",
    "locality": "Saint-Tropez"
}{
    "name": "La Cave",
    "address": "10 av. de Bâle",
    "postalCode": "68300",
    "locality": "Saint-Louis"
}{
    "name": "Jean-Claude Leclerc",
    "address": "12 rue St-Adjutor",
    "postalCode": "63000",
    "locality": "Clermont-Ferrand"
}{
    "name": "La Palmeraie",
    "address": "81 Boulevard de Gigaro",
    "postalCode": "83420",
    "locality": "La Croix-Valmer"
}{
    "name": "Faventia",
    "address": "3100 route de Bagnols-en-Forêt",
    "postalCode": "83440",
    "locality": "Tourrettes"
}{
    "name": "Le Clocher des Pères",
    "address": "D213",
    "postalCode": "73130",
    "locality": "Saint-Martin-sur-la-Chambre"
}{
    "name": "Apicius",
    "address": "Marché Saint Pierre 1 étage",
    "postalCode": "63000",
    "locality": "Clermont-Ferrand"
}{
    "name": "Ô Saveurs",
    "address": "38 rue george clémenceau",
    "postalCode": "14700",
    "locality": "Falaise"
}{
    "name": "Le Soleil d'Or",
    "address": "3, Route d'Auxerre",
    "postalCode": "89230",
    "locality": "Montigny-la-Resle"
}{
    "name": "Les Tourelles",
    "address": "Château d'Apigne",
    "postalCode": "35650",
    "locality": "Le Rheu"
}{
    "name": "L'Escarbille",
    "address": "8 Rue de Vélizy",
    "postalCode": "92190",
    "locality": "Meudon"
}{
    "name": "Le Montrachet",
    "address": "10 Place des Marronniers",
    "postalCode": "21190",
    "locality": "Puligny-Montrachet"
}{
    "name": "La Table de Manville",
    "address": "Domaine de Manville - D27",
    "postalCode": "13520",
    "locality": "Les Baux-de-Provence"
}{
    "name": "La Madeleine",
    "address": "1 Rue Alsace-Lorraine",
    "postalCode": "89100",
    "locality": "Sens"
}{
    "name": "Auberge de la Grand'Font",
    "address": "1 rue de la grand font",
    "postalCode": "42600",
    "locality": "Bard"
}{
    "name": "La Grande Cascade",
    "address": "Carrefour de Longchamp",
    "postalCode": "75016",
    "locality": "Paris"
}{
    "name": "La Fourchette des Ducs",
    "address": "6 r. de la Gare",
    "postalCode": "67210",
    "locality": "Obernai"
}{
    "name": "La Nouvelle Auberge",
    "address": "9 route Nationale",
    "postalCode": "68230",
    "locality": "Wihr-au-Val"
}{
    "name": "Olhabidea",
    "address": "quartier Sainte-Catherine",
    "postalCode": "64310",
    "locality": "Sare"
}{
    "name": "La Mainaz",
    "address": "Route de la Faucille",
    "postalCode": "01170",
    "locality": "Gex"
}{
    "name": "Relais de Farrou",
    "postalCode": "12200",
    "locality": "Villefranche-de-Rouergue"
}{
    "name": "Auberge du Pont de Bry - La Grappille",
    "address": "3 av. du Gén. -Leclerc",
    "postalCode": "94360",
    "locality": "Bry-sur-Marne"
}{
    "name": "Le Ciste",
    "address": "Golf Opio Valbonne",
    "postalCode": "06650",
    "locality": "Valbonne"
}{
    "name": "Mon Petit Resto",
    "address": "1 Rue du Château",
    "postalCode": "06370",
    "locality": "Mouans-Sartoux"
}{
    "name": "Château de Castel Novel",
    "address": "D133",
    "postalCode": "19240",
    "locality": "Varetz"
}{
    "name": "Au Plaisir Ambré",
    "address": "26 Grande-Rue",
    "postalCode": "05100",
    "locality": "Briançon"
}{
    "name": "La Table d'Arthur",
    "address": "35 r. St-Antoine",
    "postalCode": "63500",
    "locality": "Issoire"
}{
    "name": "Pierre",
    "address": "7-9 rue Joseph Dufour",
    "postalCode": "71000",
    "locality": "Mâcon"
}{
    "name": "L'Opéra",
    "address": "ROUTE DE PLAILLY",
    "postalCode": "60520",
    "locality": "La Chapelle-en-Serval"
}{
    "name": "Le Cappeville",
    "address": "17 Rue Cappeville",
    "postalCode": "27140",
    "locality": "Gisors"
}{
    "name": "La Boutarde",
    "address": "4 r. Boutard",
    "postalCode": "92200",
    "locality": "Neuilly-sur-Seine"
}{
    "name": "L'Amaryllis",
    "address": "5 Rue Marc Courriard",
    "postalCode": "74100",
    "locality": "ANNEMASSE"
}{
    "name": "Les Vignes Rouges",
    "address": "3-5 Rue Georges Duhamel",
    "postalCode": "95300",
    "locality": "Hérouville"
}{
    "name": "Influence",
    "address": "1 r. des Remparts",
    "postalCode": "23000",
    "locality": "La Chapelle-Taillefert"
}{
    "name": "Le Strasbourg",
    "address": "24 r. du Col. -Teyssier",
    "postalCode": "57230",
    "locality": "Bitche"
}{
    "name": "Auberge de Noves",
    "address": "rte de Châteaurenard",
    "postalCode": "13550",
    "locality": "Noves"
}{
    "name": "Le Cigalon",
    "address": "5 Boulevard du Grand Chemin",
    "postalCode": "83780",
    "locality": "Flayosc"
}{
    "name": "Sequana",
    "address": "72 quai des Orfèvres",
    "postalCode": "75001",
    "locality": "Paris"
}{
    "name": "Le Môle Passedat - La Table",
    "address": "1, esplanade du J4",
    "postalCode": "13002",
    "locality": "Marseille 02"
}{
    "name": "Le Bistronomique",
    "address": "180 av. Régis-Ryckebush",
    "postalCode": "04100",
    "locality": "Manosque"
}{
    "name": "Le Germinal",
    "address": "9 cours de la Vilaine",
    "postalCode": "35510",
    "locality": "Cesson-Sévigné"
}{
    "name": "Shang Palace",
    "address": "10 Avenue d'Iéna",
    "postalCode": "75016",
    "locality": "Paris 16"
}{
    "name": "Mère Brazier",
    "address": "12 rue Royale",
    "postalCode": "69001",
    "locality": "LYON"
}{
    "name": "L'Essentiel",
    "address": "9 Rue Jacques Preiss",
    "postalCode": "68000",
    "locality": "Colmar"
}{
    "name": "Louison",
    "address": "2750 route de la cride",
    "postalCode": "13610",
    "locality": "Le Puy-Sainte-Réparade"
}{
    "name": "Emporio Armani Caffè",
    "address": "149 bd St-Germain",
    "postalCode": "75006",
    "locality": "Paris 06"
}{
    "name": "Le Goyen",
    "address": "Place Jean-Simon",
    "postalCode": "29770",
    "locality": "Audierne"
}{
    "name": "L'Imparfait",
    "address": "8 r. des Fontaines",
    "postalCode": "24100",
    "locality": "Bergerac"
}{
    "name": "La Bergerie",
    "address": "allée Pech-Marie",
    "postalCode": "11600",
    "locality": "Aragon"
}{
    "name": "Le Millénaire",
    "address": "4 rue Bertin",
    "postalCode": "51100",
    "locality": "Reims"
}{
    "name": "Le Parfum des Délices",
    "address": "24 Place du Bourg",
    "postalCode": "12000",
    "locality": "RODEZ"
}{
    "name": "Maison Clovis",
    "address": "19 bd Brotteaux",
    "postalCode": "69006",
    "locality": "Lyon"
}{
    "name": "Auberge de l'Île Barbe",
    "address": "1 Place Notre-Dame",
    "postalCode": "69009",
    "locality": "Lyon 09"
}{
    "name": "Laurent Perréal",
    "address": "481 Grande Rue",
    "postalCode": "01340",
    "locality": "Attignat"
}{
    "name": "Le Petit Bouchon",
    "address": "37 Rue du Petit Rachapt",
    "postalCode": "35500",
    "locality": "Vitré"
}{
    "name": "Le Belrose",
    "address": "Boulevard des Crêtes",
    "postalCode": "83580",
    "locality": "Gassin"
}{
    "name": "Aux Anges",
    "address": "6 Place Georges Clemenceau",
    "postalCode": "42300",
    "locality": "Roanne"
}{
    "name": "La Mare aux Oiseaux",
    "address": "223 RUE DU CHEF DE L'ILE Fedrun",
    "postalCode": "44720",
    "locality": "Saint-Joachim"
}{
    "name": "La Mare au Diable",
    "address": "Parc du plessis picard",
    "postalCode": "77550",
    "locality": "Reau"
}{
    "name": "Le Bouche à Oreille",
    "address": "11 r. de la Chapelle",
    "postalCode": "91150",
    "locality": "Boutervilliers"
}{
    "name": "Le 44",
    "address": "44 Boulevard Albert 1er",
    "postalCode": "06600",
    "locality": "Antibes"
}{
    "name": "Le Méjane",
    "address": "r. Méjane",
    "postalCode": "12500",
    "locality": "Espalion"
}{
    "name": "Château de Noirieux",
    "address": "26 Route du Moulin",
    "postalCode": "49125",
    "locality": "Briollay"
}{
    "name": "Baud",
    "address": "181 av. du Léman",
    "postalCode": "74380",
    "locality": "Bonne"
}{
    "name": "La Cuisine",
    "address": "26 Rue du Général de Gaulle",
    "postalCode": "40130",
    "locality": "Capbreton"
}{
    "name": "Clémence",
    "address": "91 Levée-de-la-Divate",
    "postalCode": "44450",
    "locality": "Saint-Julien-de-Concelles"
}{
    "name": "La Villa des Chimères",
    "address": "12 rue du Pont-Fauré",
    "postalCode": "31780",
    "locality": "Castelginest"
}{
    "name": "Auberge du Cochon d'Or",
    "address": "64 rue des Anciens-d'AFN",
    "postalCode": "27210",
    "locality": "Beuzeville"
}{
    "name": "Les Hautes Roches",
    "address": "86 quai de Loire",
    "postalCode": "37210",
    "locality": "Rochecorbon"
}{
    "name": "Racine",
    "address": "6 pl. Godinot",
    "postalCode": "51100",
    "locality": "Reims"
}{
    "name": "Le Madeleine",
    "address": "206 Rue de la Madeleine",
    "postalCode": "27130",
    "locality": "Verneuil-sur-Avre"
}{
    "name": "Les Fables de La Fontaine",
    "address": "131 rue St-Dominique",
    "postalCode": "75007",
    "locality": "Paris"
}{
    "name": "La Taupinière",
    "address": "D783",
    "postalCode": "29930",
    "locality": "Pont-Aven"
}{
    "name": "L'Axel",
    "address": "43 r. de France",
    "postalCode": "77300",
    "locality": "Fontainebleau"
}{
    "name": "La Mère Poulard",
    "address": "Gde-Rue",
    "postalCode": "50116",
    "locality": "Le Mont-Saint-Michel"
}{
    "name": "Monsieur Marius",
    "address": "40 rue des Filatiers",
    "postalCode": "31000",
    "locality": "Toulouse"
}{
    "name": "Le Mas du Lingousto",
    "address": "934 avenue Eugenie et henri Majastre",
    "postalCode": "83390",
    "locality": "Cuers"
}{
    "name": "Le Grand Véfour",
    "address": "17 rue de Beaujolais",
    "postalCode": "75001",
    "locality": "Paris"
}{
    "name": "Le Petit Kembs",
    "address": "49 Rue du Marechal Foch",
    "postalCode": "68680",
    "locality": "Kembs"
}{
    "name": "Le Grand Restaurant - Jean-François Piège",
    "address": "7 r. d'Aguesseau",
    "postalCode": "75008",
    "locality": "Paris"
}{
    "name": "Danton",
    "address": "8 r. Danton",
    "postalCode": "69003",
    "locality": "Lyon"
}{
    "name": "La Rencontre",
    "address": "16 rue des Cardeurs",
    "postalCode": "66000",
    "locality": "Perpignan"
}{
    "name": "Le Quai des Saveurs",
    "address": "10 Quai Rene Guine",
    "postalCode": "85100",
    "locality": "Les Sables d'Olonne"
}{
    "name": "Alliance",
    "address": "5 Rue de Poissy",
    "postalCode": "75005",
    "locality": "Paris"
}{
    "name": "Les Trois Rochers",
    "address": "16 rue du Phare",
    "postalCode": "29120",
    "locality": "Sainte-Marine"
}{
    "name": "Auberge de Vienne",
    "address": "2 rte d'Orléans",
    "postalCode": "45510",
    "locality": "Vienne-en-Val"
}{
    "name": "Château de Sully",
    "address": "D6",
    "postalCode": "14400",
    "locality": "Sully"
}{
    "name": "Skab",
    "address": "7 Rue de la République",
    "postalCode": "30000",
    "locality": "nimes"
}{
    "name": "Mori Venice Bar",
    "address": "27 Rue Vivienne",
    "postalCode": "75002",
    "locality": "Paris 02"
}{
    "name": "Le P'tit Polyte",
    "address": "2 Rue de la Chapelle",
    "postalCode": "38860",
    "locality": "Les Deux Alpes"
}{
    "name": "Tournayre",
    "address": "12 r. Chênebouterie",
    "postalCode": "43000",
    "locality": "Le Puy-en-Velay"
}{
    "name": "Les 7 Mers",
    "address": "64 chaussée du Sillon",
    "postalCode": "35400",
    "locality": "Saint-Malo"
}{
    "name": "Les Toquées",
    "address": "110 quai Géry-Legrand",
    "postalCode": "59000",
    "locality": "Lille"
}{
    "name": "Tumulus",
    "address": "chemin du Tumulus",
    "postalCode": "56340",
    "locality": "Carnac"
}{
    "name": "Le 1947",
    "address": "Cheval Blanc Courchevel - Le Jardin Alpin",
    "postalCode": "73120",
    "locality": "Courchevel 1850"
}{
    "name": "Le Carré d'Alethius",
    "address": "4 r. Paul-Bertois",
    "postalCode": "07800",
    "locality": "Charmes-sur-Rhône"
}{
    "name": "Le Cerisier",
    "address": "1 r. St-Joseph",
    "postalCode": "07300",
    "locality": "Tournon-sur-Rhône"
}{
    "name": "Manoir de la Boulaie",
    "address": "33 rue Chapelle St-Martin",
    "postalCode": "44115",
    "locality": "HAUTE-GOULAINE"
}{
    "name": "Christophe Bacquié",
    "address": "Hotel du Castellet Route des Hauts du Camp",
    "postalCode": "83330",
    "locality": "Le Castellet"
}{
    "name": "Le Jardin des Quatre Saisons",
    "address": "5 rue de la Pompe",
    "postalCode": "81000",
    "locality": "Albi"
}{
    "name": "Le Musigny",
    "address": "90 Avenue de Liege",
    "postalCode": "59300",
    "locality": "Valenciennes"
}{
    "name": "La Licorne Royale",
    "address": "27 Place Isaac Benserade",
    "postalCode": "27480",
    "locality": "Lyons-la-Forêt"
}{
    "name": "Auberge Panacau",
    "address": "12 route departementale 817",
    "postalCode": "64170",
    "locality": "Lacq"
}{
    "name": "Rackham",
    "address": "27 pl. Lacaze Duthiers rčs de l'église",
    "postalCode": "29680",
    "locality": "ROSCOFF"
}{
    "name": "Le Flamboyant",
    "address": "21 bis rue de l'Horloge",
    "postalCode": "63200",
    "locality": "Riom"
}{
    "name": "Château de Rochegude",
    "address": "Place du Château",
    "postalCode": "26790",
    "locality": "Rochegude"
}{
    "name": "Château d'Orfeuillette",
    "address": "D4",
    "postalCode": "48200",
    "locality": "Albaret-Sainte-Marie"
}{
    "name": "Le 39V",
    "address": "39 Avenue George V",
    "postalCode": "75008",
    "locality": "Paris 08"
}{
    "name": "Le Clarence",
    "address": "31 Avenue Franklin Delano Roosevelt",
    "postalCode": "75008",
    "locality": "Paris 08"
}{
    "name": "Domaine de la Tortinière",
    "address": "rte de Ballan-Veigné",
    "postalCode": "37250",
    "locality": "Montbazon"
}{
    "name": "Le Chapon Fin",
    "address": "5 Rue Montesquieu",
    "postalCode": "33000",
    "locality": "Bordeaux"
}{
    "name": "Les Lacs d'Halco",
    "address": "route de Cazalis",
    "postalCode": "40700",
    "locality": "Hagetmau"
}{
    "name": "Kura",
    "address": "56 r. de Boulainvilliers",
    "postalCode": "75016",
    "locality": "Paris"
}{
    "name": "Le Raphaël",
    "address": "rte des Moulins",
    "postalCode": "29350",
    "locality": "Moëlan-sur-Mer"
}{
    "name": "Hôtel des Voyageurs",
    "address": "18 AVENUE DE LA MAIRIE",
    "postalCode": "19170",
    "locality": "Tarnac"
}{
    "name": "Maison Lameloise",
    "address": "36 pl. d'Armes",
    "postalCode": "71150",
    "locality": "Chagny"
}{
    "name": "Le Moulin du Grand Étang",
    "postalCode": "24360",
    "locality": "Saint-Estèphe"
}{
    "name": "L'Épicurien",
    "address": "1 r. du Conseil",
    "postalCode": "24000",
    "locality": "Périgueux"
}{
    "name": "Beau Site",
    "address": "N 9",
    "postalCode": "15320",
    "locality": "Viaduc de Garabit"
}{
    "name": "Arbequina",
    "address": "21 rue de la République",
    "postalCode": "66300",
    "locality": "Thuir"
}{
    "name": "L'Orangerie du Lac",
    "address": "57 rue Jean-Jaurès",
    "postalCode": "45200",
    "locality": "Montargis"
}{
    "name": "Auberge Grand'Maison",
    "address": "1 r. Léon-le-Cerf",
    "postalCode": "22530",
    "locality": "Mûr-de-Bretagne"
}{
    "name": "L'Edulis",
    "address": "8 r. de l'Abreuvoir",
    "postalCode": "50400",
    "locality": "Granville"
}{
    "name": "Isabelle Auguy",
    "address": "154 rue Pierre Carrère",
    "postalCode": "12000",
    "locality": "Rodez"
}{
    "name": "Arraditz",
    "address": "2 r. Cachau",
    "postalCode": "64230",
    "locality": "Lescar"
}{
    "name": "Sylvestre",
    "address": "79 rue St-Dominique",
    "postalCode": "75007",
    "locality": "Paris"
}{
    "name": "Raphaël Vionnet",
    "address": "43 Avenue du Général Leclerc",
    "postalCode": "74200",
    "locality": "Thonon-les-Bains"
}{
    "name": "Restaurant du Château",
    "address": "15 avenue des Reynats",
    "postalCode": "24650",
    "locality": "Chancelade"
}{
    "name": "Le Verre à Soie",
    "address": "12 pl. des Arcades",
    "postalCode": "26110",
    "locality": "Nyons"
}{
    "name": "Haut Bonheur de la Table",
    "address": "18 Grand-Place",
    "postalCode": "59670",
    "locality": "Cassel"
}{
    "name": "La Table de l'Espadon",
    "address": "15 Place Vendôme",
    "postalCode": "75001",
    "locality": "Paris"
}{
    "name": "Hostellerie de la Mer",
    "address": "11 quai du Fret",
    "postalCode": "29160",
    "locality": "Le Fret"
}{
    "name": "Le Fantin Latour - Stéphane Froidevaux",
    "address": "1 r. Gén. Beylié",
    "postalCode": "38000",
    "locality": "Grenoble"
}{
    "name": "Les Sapins",
    "address": "Conte",
    "postalCode": "09300",
    "locality": "Nalzen"
}{
    "name": "La Gremelle",
    "address": "6 rte de Dijon",
    "postalCode": "21550",
    "locality": "Ladoix-Serrigny"
}{
    "name": "L'Arnsbourg",
    "address": "Untermuhlthal",
    "postalCode": "57230",
    "locality": "Baerenthal"
}{
    "name": "L'Arpège",
    "address": "22 Place de Verdun",
    "postalCode": "65000",
    "locality": "Tarbes"
}{
    "name": "Chez Bach",
    "address": "4 pl. Ancienne Gare",
    "postalCode": "39120",
    "locality": "Chaussin"
}{
    "name": "D'un Goût à l'Autre",
    "address": "21, Rue des deportes",
    "postalCode": "26110",
    "locality": "Nyons"
}{
    "name": "Le Capella",
    "address": "Château Chapeau Cornu, 312 rue de la Garenne",
    "postalCode": "38890",
    "locality": "Vignieu"
}{
    "name": "Cap 120",
    "address": "quai d'Honneur",
    "postalCode": "83230",
    "locality": "Bormes-les-Mimosas"
}{
    "name": "L'Auberge",
    "address": "56 Rue de Vannes",
    "postalCode": "56400",
    "locality": "Sainte-Anne-d'Auray"
}{
    "name": "Auberge le Beauharnais",
    "address": "18 Rue Napoléon III",
    "postalCode": "41210",
    "locality": "La Ferté-Beauharnais"
}{
    "name": "La Factory",
    "address": "Rue de Galata",
    "postalCode": "34000",
    "locality": "Montpellier"
}{
    "name": "Château du Bost",
    "address": "27 Rue de Beauséjour",
    "postalCode": "03700",
    "locality": "BELLERIVE-SUR-ALLIER"
}{
    "name": "Mercator",
    "address": "Mercatel",
    "postalCode": "62217",
    "locality": "Mercatel"
}{
    "name": "Camélia",
    "address": "251 rue St-Honoré",
    "postalCode": "75001",
    "locality": "Paris"
}{
    "name": "La Table de Jean",
    "address": "7 bd Émile-Trémoulet",
    "postalCode": "12400",
    "locality": "Saint-Affrique"
}{
    "name": "La Pyramide-Patrick Henriroux",
    "address": "14 Boulevard Fernand Point",
    "postalCode": "38200",
    "locality": "Vienne"
}{
    "name": "L'Hermitage Gantois",
    "address": "224 r. de Paris",
    "postalCode": "59000",
    "locality": "LILLE"
}{
    "name": "Le Verbois",
    "address": "Hameau de la Grande Folie - 6 Route d'Apremont",
    "postalCode": "60740",
    "locality": "Saint-Maximin"
}{
    "name": "Le Viù",
    "address": "665 rte des Bains",
    "postalCode": "74290",
    "locality": "Menthon-Saint-Bernard"
}{
    "name": "La Machine à Coudes",
    "address": "35 r. Nationale",
    "postalCode": "92100",
    "locality": "Boulogne-Billancourt"
}{
    "name": "L'Émulsion",
    "address": "57 rte de Lyon",
    "postalCode": "38080",
    "locality": "Saint-Alban-de-Roche"
}{
    "name": "Restaurant du Pont",
    "address": "15 Rue du Maréchal de Rochambeau",
    "postalCode": "41100",
    "locality": "Thoré-la-Rochette"
}{
    "name": "Entre Vigne et Garrigue",
    "address": "600 route de Saint Bruno",
    "postalCode": "30131",
    "locality": "Pujaut"
}{
    "name": "La Marée",
    "address": "5 quai Henri-Chéron",
    "postalCode": "14450",
    "locality": "Grandcamp-Maisy"
}{
    "name": "Les Deux Ponts",
    "address": "1 rte de Vézelay",
    "postalCode": "89450",
    "locality": "Pierre-Perthuis"
}{
    "name": "Spoon",
    "address": "25 pl. de la Bourse",
    "postalCode": "75002",
    "locality": "Paris"
}{
    "name": "Le Goût des Autres",
    "address": "17 r. des Equipes-d'Urgence",
    "postalCode": "14000",
    "locality": "Caen"
}{
    "name": "Les Hospitaliers",
    "address": "95 rue Neuve, Le Village",
    "postalCode": "26160",
    "locality": "Le Poët-Laval"
}{
    "name": "Chartron",
    "address": "av. Gambetta",
    "postalCode": "26260",
    "locality": "SAINT-DONAT-SUR-L'HERBASSE"
}{
    "name": "Les Poulettes Batignolles",
    "address": "10 Rue de Cheroy",
    "postalCode": "75017",
    "locality": "Paris"
}{
    "name": "La Voûte - Chez Léa",
    "address": "11 Place Antonin Gourju",
    "postalCode": "69002",
    "locality": "Lyon 02"
}{
    "name": "Georges Blanc",
    "address": "pl. du Marché",
    "postalCode": "01540",
    "locality": "Vonnas"
}{
    "name": "Substrat",
    "address": "7 r. Pailleron",
    "postalCode": "69004",
    "locality": "Lyon"
}{
    "name": "Badine",
    "address": "168 Cours Berriat",
    "postalCode": "38000",
    "locality": "Grenoble"
}{
    "name": "L'Écuyer Normand",
    "address": "23 Route de Paris",
    "postalCode": "61300",
    "locality": "Chandai"
}{
    "name": "Le Colombier",
    "address": "r. Loucheur",
    "postalCode": "76550",
    "locality": "Offranville"
}{
    "name": "L'Antiquaire",
    "address": "64 Rue Vaufleury",
    "postalCode": "53000",
    "locality": "Laval"
}{
    "name": "La Table de Monrecour",
    "address": "Domaine de Monrecour",
    "postalCode": "24220",
    "locality": "Saint-Vincent-de-Cosse"
}{
    "name": "Le Manoir des Impressionnistes",
    "address": "23 Route de Trouville",
    "postalCode": "14600",
    "locality": "Honfleur"
}{
    "name": "Le Pavillon",
    "address": "770 Chemin de la Garoupe",
    "postalCode": "06600",
    "locality": "Cap d'Antibes"
}{
    "name": "Les Jardins de l'Espadon",
    "address": "15 place Vendôme",
    "postalCode": "75001",
    "locality": "Paris"
}{
    "name": "Auberge de la Diligence",
    "address": "4 r. de la Libération",
    "postalCode": "49440",
    "locality": "Loiré"
}{
    "name": "Auberge de La Mère Duval",
    "address": "pl. Daniel-Boucour",
    "postalCode": "76890",
    "locality": "Val-de-Saâne"
}{
    "name": "Hervé Busset",
    "address": "D901",
    "postalCode": "12320",
    "locality": "Conques"
}{
    "name": "L'Ambassade des Terroirs",
    "address": "45 Rue Pierre Timbaud",
    "postalCode": "92230",
    "locality": "Gennevilliers"
}{
    "name": "L'Auberge de la Pomme",
    "address": "44 rue de l' eure",
    "postalCode": "27340",
    "locality": "Les Damps"
}{
    "name": "Taokan - St-Germain",
    "address": "8 Rue du Sabot",
    "postalCode": "75006",
    "locality": "Paris"
}{
    "name": "La Ferme de l'Odet",
    "address": "74 chemin de la Baie-de-Kerogan",
    "postalCode": "29000",
    "locality": "Quimper"
}{
    "name": "La Table de Franck Putelat",
    "address": "80 chemin des Anglais",
    "postalCode": "11000",
    "locality": "Carcassonne"
}{
    "name": "L'Atelier de Marc Meurin",
    "address": "97 Rue Paul Bert",
    "postalCode": "62300",
    "locality": "Lens"
}{
    "name": "Chameleon",
    "address": "70 Rue René Boulanger",
    "postalCode": "75010",
    "locality": "Paris"
}{
    "name": "Au Bord de la Source",
    "address": "avenue de Bordeaux",
    "postalCode": "47110",
    "locality": "Sainte-Livrade-sur-Lot"
}{
    "name": "Les Saisons Gourmandes",
    "address": "D16D",
    "postalCode": "36260",
    "locality": "Saint-Pierre-de-Jards"
}{
    "name": "Le Metropolitan",
    "address": "10 place de Mexico",
    "postalCode": "75116",
    "locality": "PARIS"
}{
    "name": "Domaine Saint Clair",
    "address": "chemin de St-Clair",
    "postalCode": "76790",
    "locality": "Étretat"
}{
    "name": "La Table de Bruno",
    "address": "2 av. Maréchal-Foch",
    "postalCode": "83470",
    "locality": "Saint-Maximin-la-Sainte-Baume"
}{
    "name": "Le Balbec",
    "address": "Promenade Marcel-Proust",
    "postalCode": "14390",
    "locality": "CABOURG"
}{
    "name": "Le Jardin de Bellevue",
    "address": "58 r. Claude-Bernard",
    "postalCode": "57070",
    "locality": "Metz"
}{
    "name": "Auberge de la Vieille Ferme",
    "address": "58 rue de la République",
    "postalCode": "60880",
    "locality": "Le Meux"
}{
    "name": "Rèvolâ",
    "address": "263 av. Cachat-le-Géant",
    "postalCode": "74400",
    "locality": "Chamonix-Mont-Blanc"
}{
    "name": "Éclosion",
    "address": "40 avenue du chateau",
    "postalCode": "42740",
    "locality": "saint paul en jarez"
}{
    "name": "Loiseau des Vignes",
    "address": "31 Rue Jean Francois Maufoux",
    "postalCode": "21200",
    "locality": "Beaune"
}{
    "name": "Numéro 3",
    "address": "3 rue du Général de Gaulle",
    "postalCode": "78490",
    "locality": "Le Tremblay-sur-Mauldre"
}{
    "name": "L'Aquarelle",
    "address": "2 r. Félix Marchand",
    "postalCode": "53200",
    "locality": "Château-Gontier"
}{
    "name": "Le 59 Restaurant",
    "address": "59 r. du Casino",
    "postalCode": "73100",
    "locality": "Aix-les-Bains"
}{
    "name": "Auberge de la Chèvrerie",
    "address": "Rue des Puits",
    "postalCode": "67870",
    "locality": "Griesheim-près-Molsheim"
}{
    "name": "Aux Pesked",
    "address": "59 Rue du Légué",
    "postalCode": "22000",
    "locality": "Saint-Brieuc"
}{
    "name": "La Malle Poste",
    "address": "3075 RD La Dauphinoise",
    "postalCode": "26750",
    "locality": "Saint-Paul-lès-Romans"
}{
    "name": "Buerehiesel",
    "address": "dans le parc de l'Orangerie",
    "postalCode": "67000",
    "locality": "Strasbourg"
}{
    "name": "Charles Barrier",
    "address": "101 avenue de la Tranchée",
    "postalCode": "37100",
    "locality": "Tours"
}{
    "name": "Le Jardin de Sébastien",
    "address": "599 avenue des Golfs",
    "postalCode": "83700",
    "locality": "SAINT-RAPHAEL"
}{
    "name": "Le Cheverny",
    "address": "57 av. Baudin",
    "postalCode": "87000",
    "locality": "Limoges"
}{
    "name": "La Cour de Lise",
    "address": "26 rue Principale",
    "postalCode": "67370",
    "locality": "Willgottheim"
}{
    "name": "La Table de l'Ours",
    "address": "chemin des Carats",
    "postalCode": "73150",
    "locality": "Val-d'Isère"
}{
    "name": "Belle Vue",
    "address": "1 rte de Haguenau",
    "postalCode": "67360",
    "locality": "Hegeney"
}{
    "name": "Pèir",
    "address": "r. de la Combe",
    "postalCode": "84220",
    "locality": "Gordes"
}{
    "name": "Épicure",
    "address": "112 r. Fg St-Honoré",
    "postalCode": "75008",
    "locality": "Paris 08"
}{
    "name": "Chez Parenti",
    "address": "10 Avenue Napoléon",
    "postalCode": "20110",
    "locality": "Propriano"
}{
    "name": "Passy Mandarin La Muette",
    "address": "6 Rue Bois-Le-Vent",
    "postalCode": "75016",
    "locality": "Paris"
}{
    "name": "L'Olivier",
    "address": "25 Route des Carles",
    "postalCode": "83990",
    "locality": "Saint-Tropez"
}{
    "name": "Quartier Gourmand",
    "address": "2 av. Gambetta",
    "postalCode": "71700",
    "locality": "Tournus"
}{
    "name": "Le Saint-Estève",
    "address": "2250 route cézanne D17",
    "postalCode": "13100",
    "locality": "Le Tholonet"
}{
    "name": "L'Affriolé",
    "address": "17 r. Malar",
    "postalCode": "75007",
    "locality": "Paris 07"
}{
    "name": "Chapelle Saint-Martin",
    "address": "33, Saint Martin du Fault",
    "postalCode": "87510",
    "locality": "Nieul"
}{
    "name": "L'Apibo",
    "address": "31, rue Tiquetonne",
    "postalCode": "75002",
    "locality": "Paris"
}{
    "name": "Pavillon Henri IV",
    "address": "21 rue Thiers",
    "postalCode": "78100",
    "locality": "SAINT-GERMAIN-EN-LAYE"
}{
    "name": "Le Rive Gauche",
    "address": "10 côte St-Sébastien",
    "postalCode": "44200",
    "locality": "Nantes"
}{
    "name": "Frédéric Carrion Cuisine Hôtel",
    "address": "Rue de la Cave",
    "postalCode": "71260",
    "locality": "Viré"
}{
    "name": "Le Bois de Bon Séjour",
    "address": "2 r. Roger-Salengro",
    "postalCode": "10150",
    "locality": "Pont-Sainte-Marie"
}{
    "name": "Mas Valentine",
    "address": "Route de Noves",
    "postalCode": "13210",
    "locality": "Saint-Rémy-de-Provence"
}{
    "name": "J'Y Cours",
    "address": "466 avenue Philippe Courtial",
    "postalCode": "60600",
    "locality": "Agnetz"
}{
    "name": "Biondi",
    "address": "118 Rue Amelot",
    "postalCode": "75011",
    "locality": "Paris"
}{
    "name": "Le Séran",
    "address": "Impasse des Ecureuils",
    "postalCode": "14250",
    "locality": "Audrieu"
}{
    "name": "Les Prés d'Eugénie - Michel Guérard",
    "address": "pl. de l'Impératrice",
    "postalCode": "40320",
    "locality": "Eugénie-les-Bains"
}{
    "name": "L'Escu de Runfao",
    "address": "La Quinte",
    "postalCode": "35340",
    "locality": "Liffré"
}{
    "name": "Le Moulin de Léré",
    "address": "le Moulin sous la Côte",
    "postalCode": "74470",
    "locality": "Vailly"
}{
    "name": "La Suite S'il Vous Plait",
    "address": "20 Boulevard Franklin Roosevelt",
    "postalCode": "85100",
    "locality": "Les Sables-d'Olonne"
}{
    "name": "Auberge du Roua",
    "address": "46 Chemin du Roua",
    "postalCode": "66700",
    "locality": "Argelès-sur-Mer"
}{
    "name": "Au Boeuf Noir",
    "address": "2 r. de Folgensbourg",
    "postalCode": "68220",
    "locality": "Hésingue"
}{
    "name": "L'Embarcadère",
    "address": "13 av. du Lac",
    "postalCode": "01130",
    "locality": "Nantua"
}{
    "name": "Moulin d'Orgeval",
    "address": "r. de l'Abbaye",
    "postalCode": "78630",
    "locality": "Orgeval"
}{
    "name": "Restaurant de la Marne",
    "address": "30 r. de la Marne",
    "postalCode": "22500",
    "locality": "Paimpol"
}{
    "name": "Chavant",
    "address": "2 r. Emile-Chavant",
    "postalCode": "38320",
    "locality": "Bresson"
}{
    "name": "Le Château de la Mandre",
    "address": "4 Rue Cazalères",
    "postalCode": "31410",
    "locality": "Le Fauga"
}{
    "name": "Le Roc Alto",
    "address": "Quartier La Ville",
    "postalCode": "05350",
    "locality": "SAINT-VERAN"
}{
    "name": "L'Inconnu",
    "address": "4 Rue Pierre Leroux,",
    "postalCode": "75007",
    "locality": "Paris"
}{
    "name": "Genty Magre",
    "address": "3 r. Genty-Magre",
    "postalCode": "31000",
    "locality": "Toulouse"
}{
    "name": "Le DIV'20",
    "address": "20 r. du Loing",
    "postalCode": "77690",
    "locality": "Montigny-sur-Loing"
}{
    "name": "Le Lion d'Or",
    "address": "23 rte de Paris.",
    "postalCode": "03100",
    "locality": "Estivareilles"
}